id,name,x,y,fullRoadAddress,phone,description,keywords,imageURL,categories,bizhourInfo,menus,menuImages,reviewCount,contentscd,sim_rank1,sim_rank2,sim_rank3
19873758,네거리식당,126.5592992,33.24849462,제주특별자치도 서귀포시 서문로29번길 20,064-762-5513,"성게미역국, 갈치국 등 싱싱한 재료를 이용한 제주음식을 만날 수 있는 곳입니다.","갈치국, 자리물회, 한치물회, 옥돔국, 갈치구이",https://ldb-phinf.pstatic.net/20210722_123/1626938269126MbCXd_PNG/vp5kfdtUXP0sm7fR8MxoO9P4.png,"한식,해물,생선요리",평일 07:00~21:40 마지막 주문  20시40분,"갈치국 (소) : 15,000원/ 갈치국 (특) : 20,000원/ 성게미역국 : 15,000원/ 옥돔미역국 : 15,000원/ 갈치구이 1인분(공기밥별도) : 25,000원/ 갈치조림 (중) : 50,000원/ 갈치조림 (대) : 60,000원/ 옥돔정식 : 15,000원/ 옥돔구이(중국산) : 20,000원/ 옥돔구이(국내산) : 30,000원/ 고등어조림 중 : 30,000원/ 고등어조림 대 : 40,000원/ 고등어구이 : 13,000원/ 옥돔무우국 : 15,000원/",https://ldb-phinf.pstatic.net/20171031_210/1509436834500v3w9F_JPEG/0GuqGWcOm3DqZ2GHqST5q4Cl.jpg,1625,음식점,"표선어촌식당,https://ldb-phinf.pstatic.net/20191208_274/15757683091844Rxra_JPEG/aAkTWbxQ6AvIsq6viCTeedsh.jpg,32166291","낙지네,https://ldb-phinf.pstatic.net/20180104_12/1515030194682FL3y0_JPEG/pg80Vsjwm29B1JAwyeyxgo15.jpg,37897669","순옥이네명가,https://ldb-phinf.pstatic.net/20190112_282/1547276845033b2zvo_JPEG/f7vQqjC1DWQleghLQuJJZGy9.jpeg.jpg,11595461"
19873447,맛나식당,126.9160607,33.4485977,제주특별자치도 서귀포시 성산읍 동류암로 41,064-782-4771,맛나갈비 식당에는 칼칼한 생선조림은 있지만 갈비는 없습니다.오래전 가족들과 함께 이곳에서 갈비 식당을 운영하다 지금은 홀로 사장님겸 주방장을 맡고 계시는 주인 할머니는 따뜻함이 묻어나는 제주도 토박이. 여행자들은 이곳에서 갈치와 고등어 조림을 많이 찾는다고 하네요. 1인분을 주문하면 4조각의 오동통한 갈치조림이 나오는데 가격은 다른 곳의 절반 수준. 근처 성산포에서 잡은 갈치와 고등어만 사용하기 때문에 언제나 싱싱한 생선을 맛볼 수 있다고 합니다. 갈치는 여름보다 가을부터 봄까지 추울때가 맛이 좋다고 하니 참고하세요. 카드는 사용불가.,"갈치조림, 고등어조림",https://ldb-phinf.pstatic.net/20150831_75/1441020535072vfcGv_JPEG/156155407849152_0.jpg,"음식점,한식","매일 08:30~14:00 연중무휴, 재료 소진 시 까지 / 일요일, 수요일 휴무","갈치조림 : 13,000원/ 고등어조림 : 11,000원/ 공기밥추가 : 1,000원/ 소주. 맥주 : 5,000원/ 우도땅콩막걸리 : 5,000원/",https://ldb-phinf.pstatic.net/20190907_252/1567839938590WJHwO_JPEG/SnuDl9iaLRzVOvVo1lWr4SqS.jpeg.jpg,1895,음식점,"미담만두,https://ldb-phinf.pstatic.net/20210502_177/1619942048097mVAce_JPEG/-OIV73fmGRDJHETNaWTWvNam.jpg,1580798127","협재삼춘네횟집,https://ldb-phinf.pstatic.net/20180720_103/1532077789257IbWxB_JPEG/BST3iLu29NvWVTjNJJN_oP3X.JPG.jpg,38276644","다올밥상,,20056158"
1927504039,제주순메밀막국수,126.3019503,33.2912545,제주특별자치도 서귀포시 안덕면 녹차분재로 60,064-792-0600,안녕하세요 100%제주 순메밀만 사용하는 제주순메밀막국수 입니다.,"갓짠들기름, 24시간영업, 산방산음식점, 제주막국수, 제주순메밀막국수",https://ldb-phinf.pstatic.net/20210409_285/1617965564225tlMXO_JPEG/wWJx7y9YvDsNfMzVJdZ71ap6.JPG.jpg,"한식,막국수",매일 06:00~23:00 마지막 주문 22:30,"들기름막국수 : 10,000원/ 명태회막국수 : 10,000원/ 수육 : 20,000원/ 해물찜닭(소) : 40,000원/ 샤브백숙 : 65,000원/ 동치미막국수 : 9,000원/ 메밀소바 : 9,000원/ 해물파전 : 18,000원/ 해물찜닭 대 : 60,000원/ 유뷰온면 : 9,000원/",https://ldb-phinf.pstatic.net/20220513_145/1652426918969hN0O1_PNG/1652426900644.png,1167,음식점,"천지연전복해물뚝배기,https://ldb-phinf.pstatic.net/20200826_29/1598401389380QwVTD_JPEG/3Klo2fPJOSnBz5OphV2ipHjV.jpeg.jpg,51251862","장금이,https://ldb-phinf.pstatic.net/20211122_257/1637549909060XWi4Q_JPEG/IMG_2326.JPG,1246195458","돈보리,https://ldb-phinf.pstatic.net/20220204_139/1643956482082n0MkR_JPEG/1643956399442.jpg,1287253740"
37060300,자매국수,126.5169996,33.5168221,제주특별자치도 제주시 탑동로11길 6,064-746-2222,"2022년 6월 2일부터 영업시간이 오후 6시까지로 단축됩니다. 손님 여러분의 양해 부탁드리며, 이용시간 참고하시어 이용에 불편함 없으시길 바랍니다 :)","고기국수, 비빔국수, 국수, 돔베고기",https://ldb-phinf.pstatic.net/20220531_107/1654003363293wQ9Ky_PNG/%C0%DA%B8%C5%B1%B9%BC%F6_%BF%B5%BE%F7%BD%C3%B0%A3.png,"한식,국수",매일 09:00~19:40 / 마지막 주문 19:40 / 브레이크타임 14:20~16:00 / 매주 수요일 휴무,"고기국수 : 9,000원/ 비빔국수 : 9,000원/ 돔베고기 소 : 17,000원/ 물만두 소 : 8,000원/ 물만두 대 : 14,000원/ 돔베고기 대 : 32,000원/",https://ldb-phinf.pstatic.net/20220531_184/1654003389948NgEDy_JPEG/%B8%DE%B4%BA%C6%C7_%B0%A1%B0%DD%BA%AF%B0%E6.jpg,4519,음식점,"순두부엔짬뽕,https://ldb-phinf.pstatic.net/20190302_155/155149812015383Q2C_JPEG/DviMM7S32RGISwHS9YkB0enH.jpg,937760763","평창메밀막국수,https://ldb-phinf.pstatic.net/20200424_105/1587710790426yxEHv_JPEG/Qni_v5CDfuVSXIKWv0xD-TGS.jpeg.jpg,38729538","제주은희네해장국 서귀포점,https://ldb-phinf.pstatic.net/20171221_254/151381587046251FE3_PNG/1HbMq-QwEzD4x-PTq1K-R63s.png,35089491"
13434137,미영이네식당,126.249784,33.217709,제주특별자치도 서귀포시 대정읍 하모항구로 42,064-792-0077,"모슬포항앞에 위치한 고등어회, 방어회,여름에는 물회를 많이 드시러 오는 소박하지만 손맛 좋은 식당입니다. 특히 고등어회는 미영이네에서만 맛볼 수 있는 특제 야채양념장과 고등어회 그리고 원초가 좋은 김과 함께 드시면그 맛에 많은 분들이 반하시고 또 고등어회를 드시고 난 후 나오는 고등어탕때문에 고등어회를 드시는 분들도 계시답니다.친절하고 손맛좋은 사장님이 맛있고 싱싱한 고등어회와 방어회 그리고 각종 계절음식들을 선보이고 있으니 많이 와주세요","고등어회, 방어회, 고등어, 방어",https://ldb-phinf.pstatic.net/20200513_33/1589359746174lDDMY_JPEG/l9N_zLBmHy08T787RBn6Pdwl.JPG.jpg,"한식,생선회",매일 11:30~22:00 마지막 주문20:30 / 수요일 휴무 매주 수요일 휴무,"고등어회 대(大) + 탕 : 77,000원/ 고등어회 소(小) + 탕 : 55,000원/ 방어회(10월~3월) : 변동가격(업주문의) 고등어구이 : 13,000원/ 공기밥 : 1,000원/ 참이슬 : 4,000원/ 카스맥주 : 4,000원/ 청하 : 6,000원/ 한라산21도 : 4,000원/",https://ldb-phinf.pstatic.net/20220115_215/1642212347954mF4iq_JPEG/D16322EF-095C-4711-BB7C-7B703AE4BB1E.jpeg,2000,음식점,"강원수산&남원동,https://ldb-phinf.pstatic.net/20220207_284/16442050924673aiU6_JPEG/KakaoTalk_20220207_123427517.jpg,1881920232","만선식당,https://ldb-phinf.pstatic.net/20200808_87/1596889754958LB7EI_JPEG/IHWhP452KbwBaX--vmN60Kj3.jpg,11851700","물항식당 탑동점,https://ldb-phinf.pstatic.net/20150831_276/1441026276575h67ip_JPEG/11712303_0.jpg,11712303"
13418405,우진해장국,126.5199694,33.51153888,제주특별자치도 제주시 서사로 11,064-757-3393,"제주산 고사리를 갈아 넣고 푹 끓여 갈색 빛깔이 나는 제주식 해장국을 만날 수 있는 한식당입니다. 제주 육개장을 주문하면 뚝배기에 해장국을 담고 파와 고춧가루를 얹어 내는데요, 찬으로는 오징어젓갈과 부추무침, 깍두기 등의 밑반찬이 곁들여집니다.","고사리육개장, 사골해장국, 녹두빈대떡, 육개장",https://ldb-phinf.pstatic.net/20150901_132/1441034191904wRPLQ_JPEG/SUBMIT_1274792647293_13418405.jpg,"한식,향토음식",매일 06:00~22:00 연중무휴,"고사리육개장 : 10,000원/ 사골해장국 : 10,000원/ 몸국 : 10,000원/ 녹두빈대떡 : 15,000원/ 소주 : 4,000원/ 맥주 : 4,000원/ 막걸리 : 3,000원/ 음료수 : 1,000원/",https://ldb-phinf.pstatic.net/20220203_289/16438465346152Vjd4_JPEG/20220203_090126.jpg,9910,음식점,"올레흑돼지김치말이,,1907654940","솔지식당,https://ldb-phinf.pstatic.net/20190311_72/1552277220008rqjyi_JPEG/obrdzrjrZqLbnJEunEvxrshg.jpg,19877488","순두부엔짬뽕,https://ldb-phinf.pstatic.net/20151230_179/1451439716920EyK11_JPEG/167173538276222_0.jpeg,37426753"
1011125170,오는정김밥,126.5675976,33.2496637,제주특별자치도 서귀포시 동문동로 2,064-762-8927,"안녕하세요 제주도 오는정김밥입니다. 홀에서는 드실수 없고 포장판매만 가능합니다. 전화로 미리 예약주시면 (전날,또는당일) 편하게 드실 수 있습니다. 바쁜시간대에는 전화통화가 어려울수있다는점 양해부탁드립니다. 좋은여행되세요!",김밥,https://ldb-phinf.pstatic.net/20200920_283/16005881236536Etia_JPEG/yobSJEIK-WZTWEGsYLaU7nTI.jpeg.jpg,"음식점,한식",매일 10:00~20:00 브레이크타임 13:30~14:30 / 일요일 휴무,"오는정김밥 : 3,500원/ 치즈김밥 : 4,000원/ 떡갈비김밥 : 5,000원/ 참치김밥 : 5,000원/ 깻잎김밥 : 5,000원/ 멸치김밥 : 5,000원/",https://ldb-phinf.pstatic.net/20200920_171/1600588114124paW94_JPEG/RRTLPUe9BVi-TWMvtk5IxR_T.jpeg.jpg,1905,음식점,"솔지식당 시청점,http://blogfiles.naver.net/20160531_281/sleepingti_1464651093126LxPyw_JPEG/DSC04455.JPG#900x600,32153015","올레흑돼지김치말이,,1907654940","동문야시장,https://ldb-phinf.pstatic.net/20220405_220/1649140909523aMxJc_JPEG/image.jpg,1809586068"
1000671392,랜디스도넛 제주애월점,126.3118552,33.4612754,제주특별자치도 제주시 애월읍 애월로 27-1,064-799-0610,,도넛,https://ldb-phinf.pstatic.net/20220413_244/16498115583776Owow_JPEG/3%C3%FE%C5%D7%B6%F3%BD%BA.jpg,"카페,디저트,도넛",평일 10:00~19:00 / 주말 10:00~20:00,"Classic : 2,200원/ Deluxe : 2,500원/ Fancy : 2,900원/ Premium : 3,300~3,500원/ 망고 요거트 스무디 : 6,000원/ 딸기 요거트 스무디 : 6,000원/ 플레인 요거트 스무디 : 6,000원/ 블루베리 요거트 스무디 : 6,000원/ 히비스커스 장미꽃차 : 5,000원/",https://ldb-phinf.pstatic.net/20220116_137/1642327261830EAIYt_JPEG/1.JPG,2647,음식점,"나따오비까 아쿠아플라넷 제주점,,1686259661","카페 노티드 제주,https://ldb-phinf.pstatic.net/20210508_79/1620441810111GWwcr_JPEG/6EeXT6lINNmJk4zsKcZ2KK_G.jpeg.jpg,1431450188","삼달센트럴_예에쓰,https://ldb-phinf.pstatic.net/20220717_240/1658035289201bq1cN_JPEG/0EAEB46C-8F0D-4921-9066-183BC09E326E.jpeg,1177753293"
16886040,오드랑베이커리,126.6715215,33.54210051,제주특별자치도 제주시 조천읍 조함해안로 552-3,064-784-5404,,베이커리,https://ldb-phinf.pstatic.net/20180305_26/1520231619675oOAMR_PNG/xGaNf71X--q7uhqZA9XwUrsU.png,"카페,디저트,베이커리",매일 07:00~22:00,"마농바게트 : 6,800원/ 카페모카 : 4,500원/ 먹물치아바타 : 5,500원/ 버터프레첼 : 5,000원/ 선드라이 치아바타 : 5,500원/ 크랜베리 깜빠뉴 : 5,500원/ 인절미 브레드 : 5,000원/ 초코퐁듀 : 5,000원/ 버터롤 : 6,500원/ 슈레드 갈릭 : 5,500원/ 까르보나라 무슈 : 3,500원/ 어니언 베이글 : 5,500원/ 아메리카노 : 3,500원/ 카페라떼 : 4,500원/ 카푸치노 : 4,500원/ 바닐라라떼 : 4,500원/ 우유 : 4,000원/ 녹차라떼 : 5,000원/ 고구마라떼 : 5,000원/ 초코라떼 : 5,000원/ 아이스티 : 4,000원/ 레몬에이드 : 5,000원/ 자몽에이드 : 5,000원/ 한라봉차 : 5,000원/ 유자차/레몬차 : 5,000원/ 얼그레이 : 4,500원/ 캐모마일 : 4,500원/",https://ldb-phinf.pstatic.net/20180305_216/1520231614638CopJm_PNG/KuhVh9OCp2gBE735ozD69lTE.png,2385,음식점,"애월빵공장앤카페,https://ldb-phinf.pstatic.net/20210507_126/1620370101118CVFLy_JPEG/agOoGaV683vdYT-CPwfs_-aY.jpg,1516216333",,
1296235294,중문수두리보말칼국수,126.4249998,33.2515785,제주특별자치도 서귀포시 천제연로 192 1층,064-739-1070,2013년 9월 오픈이래 광고한번 없이 정직하게 운영하고 있습니다. 직접 반죽한 톳면에 매일 아침마다 준비하는 자연산보말 100% 육수만 사용! 다른 어떤것도 섞지 않습니다. 반찬도 직접 손질하고 만들어 제공합니다. 진한 보말 육수와 쫄깃한 톳면의 조화를 느끼실 수있습니다.,"보말칼국수, 원조보말칼국수, 수두리보말칼국수",https://ldb-phinf.pstatic.net/20210915_121/16316324535781Y6Lg_JPEG/T_JvdQbgaIHdkNnCzYIAyX9J.jpg,"한식,칼국수,만두","매일 08:00~17:00 휴무일 : 첫째. 셋째 화요일, 16시30분 마지막 주문, 재료 소진시 조기 마감","수두리보말칼국수 : 10,000원/ 전복죽 : 13,000원/ 물만두 : 7,000원/ 제주막걸리 : 3,000원/ 우도땅콩막걸리 : 5,000원/",https://ldb-phinf.pstatic.net/20220414_165/1649901127285G5M5E_JPEG/image-9193963666685001634.jpg,1035,음식점,"용담 장인의집,https://ldb-phinf.pstatic.net/20220517_121/1652774421742ecs1M_JPEG/856AAEC1-2FDC-4DD5-A01A-26E120BA0BAE.jpeg,1670304028","마두천손칼국수,https://ldb-phinf.pstatic.net/20201112_48/1605159278475cotEo_JPEG/ezNffDcrO3g-nXKNfMvyTrqY.jpg,20982096","봉성식당,https://ldb-phinf.pstatic.net/20160616_152/1466058326921BGA95_JPEG/176560515030745_0.jpeg,17028601"
11840561,돈사돈,126.4639592,33.4788637,제주특별자치도 제주시 우평로 19,064-746-8989,저희 돈사돈은제주도 제주시 노형동에 위치하고 있습니다.돈사돈의 근고기는 일반 음식점에서 느낄 수 없는 깊은 맛과 멜젓의 조화를 이루고있으며 외지나 해외에서도많이 찾아 오시는 분들께맛있는 근고기를 제대로 대접해 드리기 위해 노력하고 있습니다.돈사돈 근고기의 참맛을 느껴보세요. 최고의 맛으로 모시겠습니다.감사합니다.,"삼겹살, 금고기",https://ldb-phinf.pstatic.net/20151104_206/1446624330240APR2z_JPEG/167054573548831_0.jpg,"한식,돼지고기구이",매일 12:00~22:00 매주 화요일 휴무,"제주산 흑돼지400g추가 : 44,000원/ 제주산 흑돼지2인600g : 66,000원/ 제주산 흑돼지3인800g : 88,000원/ 김치찌개1인+공기밥 : 9,000원/ 공기밥 : 1,000원/",https://ldb-phinf.pstatic.net/20210710_260/1625894792619uDxLf_JPEG/bJtSHkZDGgOGWWm19Yyj7hS8.jpeg.jpg,1933,음식점,"방목 흑돼지식당,https://ldb-phinf.pstatic.net/20150831_294/1440990849373UO48O_JPEG/106778494330017_2.jpg,13127042","돈사촌 외도점,https://ldb-phinf.pstatic.net/20170414_39/1492137479107cXLAB_JPEG/186364516778046_0.jpeg,19646989","수희식당,https://ldb-phinf.pstatic.net/20220512_191/1652338204711b2eS1_JPEG/KakaoTalk_20220512_154942027.jpg,19877808"
1649804520,허니문하우스,126.5788649,33.2441686,제주특별자치도 서귀포시 칠십리로 228-13,070-4277-9922,"이제 막 사랑의 서약을 마친 젊은 연인들의 허니문 명소였던 파라다이스 호텔 '허니문하우스'가 카페로 새롭게 오픈합니다. 아름다운 유럽풍 건축물과 파노라마로 펼쳐지는 바다 경관, 최고급 원두로 맛을 낸 향긋한 커피와 직접 구워낸 베이커리와 디저트 등 다양한 메뉴까지. 오랜 추억과 달콤한 사랑이 새기어진 카페 '허니문하우스'에서 제주여행의 특별한 추억을 남겨보세요.샌드위치 & 피자 주문 가능 시간 : 10:00 - 16:00 (재료 소진 시, 조기 마감 될 수 있습니다.)","서귀포카페, 바다카페, 서귀포브런치, 브런치, 원데이클래스",https://ldb-phinf.pstatic.net/20181122_234/1542871801692fHwzt_JPEG/OncSnts0wPCfidZ8SZ5EhsoZ.JPG.jpg,"음식점,카페,디저트",매일 09:30~18:30 라스트 오더 : 18:00,"아이스 아메리카노 : 7,500원/ 아메리카노 : 7,000원/ 카페라떼 : 8,500원/ 카페모카 : 8,500원/ 아인슈페너라떼(Ice only) : 9,000원/ 플랫화이트 : 8,000원/ 지브랄타 (Hot only) : 8,000원/ 초코라떼 : 8,000원/ 캐모마일티 : 8,500원/ 쿠키(초코,오트밀,피넛버터) : 4,000원/ 당근 케이크(1조각) : 9,000원/ BLT 치아바타샌드위치 : 15,000원/ 아포가토 : 10,000원/ 말차라떼 : 9,000원/ 레몬차 : 9,500원/ 바닐라라떼 : 8,500원/ 카푸치노 : 8,000원/ 에스프레소 : 7,000원/ 핸드드립 과테말라 와이칸 : 9,500원/ 자몽차 : 9,500원/ 자몽에이드/레몬에이드 : 10,000원/ 자몽주스 : 10,000원/ 블루베리 요거트 스무디 : 10,000원/ 제주 위트에일병맥주 : 10,000원/ 오트밀 치아바타 빵 : 7,000원/ 야채 치아바타 샌드위치 : 15,000원/",https://ldb-phinf.pstatic.net/20220622_155/1655873249609mQ8pW_JPEG/%C7%E3%B4%CF%B9%AE%C7%CF%BF%EC%BD%BA%B8%DE%B4%BA_20220622.JPG,1223,음식점,"바다다,https://ldb-phinf.pstatic.net/20171030_187/1509364907625fme1e_JPEG/fTjMVrmcGCn5XWju3GgL-QLL.jpg,38335352","오르다카페,https://ldb-phinf.pstatic.net/20191204_241/1575438656823yPHHy_JPEG/4nnc-Lgeo8gjdBoJ08zKGvOR.jpg,1211354901","원앤온리,https://ldb-phinf.pstatic.net/20201005_225/1601865215887jYtMC_JPEG/nc1rfIzUxa7gppjd0ESG2fOx.jpg,1256246739"
1519617703,무로이,126.3367104,33.3078113,제주특별자치도 서귀포시 안덕면 동광본동로 21 카페 무로이,070-5111-9979,마치 미술관에 온듯한 느낌을주는 카페,"서귀포카페, 서귀포시카페, 제주카페, 안덕카페, 제주도카페",https://ldb-phinf.pstatic.net/20220129_123/16434411047448agiG_JPEG/KakaoTalk_20220129_161938337.jpg,"음식점,카페,디저트","매일 11:00~20:00 추석 , 설날 12:00 ~ 20:00","아메리카노 : 7,000원/ 에스프레소 : 6,000원/ 플랫화이트 : 7,500원/ 카푸치노 : 7,500원/ 카페라떼 : 7,500원/ 바닐라 빈 돌체라떼 : 7,500원/ 한아름 목장 아이스크림 : 8,000원/ 필터 커피 : 8,000원/",https://ldb-phinf.pstatic.net/20220630_13/1656553228228gVa1S_JPEG/image.jpg,353,음식점,"제주길,https://ldb-phinf.pstatic.net/20211228_34/1640697626481NDw3h_JPEG/%C4%AB%C6%E4%C1%A4%B8%E9.jpg,1163432497","콜로세움,https://ldb-phinf.pstatic.net/20210712_233/1626075067979i4zdT_JPEG/Vhn_XbtRL-C25FuvWb58uebh.jpeg.jpg,1198344114","앤트러사이트,,1240516940"
1249805999,숙성도 노형본관,126.4850078,33.4850405,제주특별자치도 제주시 원노형로 41 1층,064-711-5212,제주도내 코로나19 확산이지속됨에 따라 사회적거리두기 시행으로 운영시간을 임시로 변경하오니 이용에착오없으시길 바랍니다.안녕하세요 제주 숙성도입니다. SBS 스페셜 539회 2019 돼지의 품격에 출연한제주 숙성도!!오직 숙성도에서만 맛보실 수 있는 숙성된 난축맛돈으로 품격 있는 숙성의 맛을 느껴 보시기 바랍니다. 감사합니다.,숙성흑돼지,https://ldb-phinf.pstatic.net/20181027_50/1540620793086Xjlmm_JPEG/DHKknkQwkfax0y2xVYw9bC_2.jpeg.jpg,"한식,돼지고기구이",매일 11:30~21:00,"교차숙성흑돼지(살코기) : 20,000원/ 720숙성삼겹 : 21,000원/ 960뼈등심 : 38,000원/ 720 흑돼지 1% : 21,000원/ 갈치속젓볶음밥 : 8,000원/ 동치미열무국수 : 8,000원/ 된장술밥 : 8,000원/ 560통항정 : 21,000원/ 가자미회비빔국수 : 8,000원/ 720숙성 흑삼겹살 : 21,000원/ 720숙성뼈목살 : 37,000원/ 720이백살 : 21,000원/ 벌집양념껍데기 : 10,000원/",https://ldb-phinf.pstatic.net/20220718_7/1658149499507K5awy_PNG/1658149471414.png,2497,음식점,"숙성도 중문점,https://ldb-phinf.pstatic.net/20200416_222/1587018592964BsJy0_JPEG/lyiKlUM5YSBrWVUPDlZJkkGD.jpg,1146342571","숙성도F&B,,1711414740","천짓골식당,https://ldb-phinf.pstatic.net/20190525_71/1558767946861aM98F_JPEG/d12SCuzq14OBl9ZPWMWErYsc.jpg,11708750"
34625104,스타벅스 제주송악산점,126.290035,33.206799,제주특별자치도 서귀포시 대정읍 형제해안로 322,1522-3232,1.주차가능2.주차장위치-매장앞송악산주차장3.주차가능대수-30대이상4.주차조건-무료,"스타벅스, 아메리카노",https://ldb-phinf.pstatic.net/20190828_93/1566953601239OT9MQ_PNG/xX7Wv642gXMoTI0DAv0hRymS.png,"카페,디저트,카페",매일 09:00~17:00,"카페 아메리카노 : 4,500원/ 카페 라떼 : 5,000원/ 스타벅스 돌체 라떼 : 5,900원/ 카라멜 마키아또 : 5,900원/ 카푸치노 : 5,000원/ 카페 모카 : 5,500원/ 화이트 초콜릿 모카 : 5,900원/ 콜드 브루 : 4,900원/ 자몽 허니 블랙 티 : 5,700원/ 아이스 자몽 허니 블랙 티 : 5,700원/ 망고 바나나 블렌디드 : 6,300원/ 에스프레소 프라푸치노 : 5,500원/ 자바 칩 프라푸치노 : 6,300원/",,421,음식점,"카페담아,https://ldb-phinf.pstatic.net/20211007_161/1633584459581x9vhS_JPEG/WyC4lWSLZKbKNGXA5ALbR8uY.jpg,1307294634","스타벅스 제주협재점,https://ldb-phinf.pstatic.net/20190828_93/1566953601239OT9MQ_PNG/xX7Wv642gXMoTI0DAv0hRymS.png,1273416923","카페 애월바다,https://ldb-phinf.pstatic.net/20220709_172/1657333654968Ge76g_JPEG/EF1528AC-EF87-4153-B288-D1CA6164EB00.jpeg,1681610252"
1214681781,하라케케,126.5277074,33.2428676,제주특별자치도 서귀포시 속골로 29-10 16호,070-4548-7433,제주도 범섬이 보이는 멋진 바다뷰카페 하라케케 입니다. 저희 하라케케카페는 애견동반 불가능한 카페입니다.,"아이스아메리카노, 제주도카페, 오션뷰카페, 서귀포카페, 칵테일",https://ldb-phinf.pstatic.net/20220207_109/16442157490587O6EY_JPEG/KakaoTalk_20220204_115725526_04.jpg,"음식점,카페,디저트",매일 11:00~21:00,"말차라떼 : 8,000원/ 블루베리스무디 : 9,000원/",https://ldb-phinf.pstatic.net/20220207_273/164421602364425pIE_JPEG/KakaoTalk_20220207_115934338.jpg,204,음식점,"엘파소,https://ldb-phinf.pstatic.net/20220724_275/16586570113080EVYk_JPEG/Screenshot_20220703-112438_Instagram.jpg,1986490157","애월카페 노을리,https://ldb-phinf.pstatic.net/20220523_145/1653299737579ajNWL_JPEG/CR701829%BC%F6%C1%A4.jpg,1255816418","러디스,https://ldb-phinf.pstatic.net/20210914_252/1631612941401vThuB_JPEG/OvsG3MEU7nYQ-qR9s-nI7Nbo.JPG.jpg,1766559911"
37170797,몽상드애월,126.3091797,33.46287069,제주특별자치도 제주시 애월읍 애월북서길 56-1,010-4419-3431,제주 노을이 가장 가까이 위치에 있는 바다 앞 카페,"애월카페, 제주바다뷰, 제주카페",https://ldb-phinf.pstatic.net/20220715_276/1657871822408UthB8_JPEG/E0DD7699-1532-4621-A718-67219A87BFCD.jpeg,"카페,디저트,카페",매일 10:30~19:30 (last order 19:00까지),"라떼 : 변동가격(업주문의) 아메리카노 : 변동가격(업주문의) 카푸치노 : 변동가격(업주문의) 바닐라라떼 : 변동가격(업주문의) 카페모카 : 변동가격(업주문의) 카라멜 마끼야또 : 변동가격(업주문의) 돌코롬하크라떼 : 변동가격(업주문의) 몽상쇼콜라 : 변동가격(업주문의) 땅콩라떼 : 변동가격(업주문의) 스트로베리 라떼 : 변동가격(업주문의) 한라봉에이드 : 변동가격(업주문의) 애플망고 주스 : 변동가격(업주문의) 망고멜랑 : 변동가격(업주문의) 세레니티 : 변동가격(업주문의) 케이크 : 변동가격(업주문의), isRecommended: False, change: True}]",https://ldb-phinf.pstatic.net/20220213_6/16447286654620xvck_JPEG/1644728599783.jpg,2768,음식점,"제주감성,,1326279362","하이엔드제주,https://ldb-phinf.pstatic.net/20220712_238/1657593201116KTwpm_JPEG/S__12492803.jpg,1828477580","커브커피스토어,https://ldb-phinf.pstatic.net/20201211_145/1607659921784KVM8p_JPEG/Szid95LxBzKR0XQxmmSsj4Oe.jpeg.jpg,1756612014"
36859834,델문도,126.6686961,33.54373101,제주특별자치도 제주시 조천읍 조함해안로 519-10,064-702-0007,"제주도 함덕의 로스터리 카페 델문도입니다. 함덕서우봉해변의 에메랄드빛 바다를 품고 있어, 맛있는 음료와 함께 아름다운 풍경도 감상하실 수 있습니다. 1박2일 제주도편 촬영지로도 유명하며^-^ , 현재 WBC(World Barista Championship)의 대표 에스프레소 머신인, 빅토리아 아르두이노 VA388 Black Eagle로 맛있는 커피를 제공하고 있습니다.(특히 델문도에서 보유하고 있는 SEATTLE 버전은 세계 60여대 밖에 없는 리미티드 에디션입니다!!)","에스프레소, 동백꽃칵테일, 당근머핀, 퐁당쇼콜라, 치즈케이크",https://ldb-phinf.pstatic.net/20160826_163/1472178646647JxGxw_JPEG/176776516063874_2.jpeg,"음식점,카페,디저트",매일 07:00~00:00 LAST ORDER(23:30),"아메리카노 : 7,000원/ 아인슈페너 : 8,500원/ 콜드브루 : 8,000원/ 우도땅콩라떼 : 8,000원/ 제주쑥라떼 : 8,000원/ 한라봉에이드 : 9,000원/ 델문도 과채 100% 착즙주스 : 8,500원/ 오리지널 수제 밀크티 : 8,500원/",https://ldb-phinf.pstatic.net/20220704_94/1656896371730yMTnx_JPEG/%C7%D4%B4%F6%B8%DE%B4%BA_0627_2-02.jpg,4333,음식점,"하이엔드제주,https://ldb-phinf.pstatic.net/20220712_238/1657593201116KTwpm_JPEG/S__12492803.jpg,1828477580","에오마르,https://ldb-phinf.pstatic.net/20200619_291/1592545964751D2mJq_JPEG/QwPiTfTILWw25pE7negd1EAq.jpg,1256054205","새빌,https://ldb-phinf.pstatic.net/20200928_30/1601285098155IEO00_JPEG/iK0AHLV9Jx8WpAIBobofTUmO.jpg,1876553757"
1892828298,바다바라,126.4130032,33.2458941,제주특별자치도 서귀포시 중문관광로72번길 29-51,070-7776-8884,BADABARA (바다바라) Bakery Coffee 중문해수욕장이 바라다보이는 압도적 오션파노라마뷰 20년경력의 제빵사가 당일 만드는 50여종류의 베이커리류힐링이 필요한 당신. 지금 떠나세요. 바다바라로!,"오션뷰, 베이커리, 카페, 와인바, 애견",https://ldb-phinf.pstatic.net/20220405_130/1649170529389DpLvk_PNG/%B0%A3%C6%C7.png,"음식점,카페,디저트",매일 10:00~18:40 날씨따라 변동발생,"커피 : 변동가격(업주문의) 한라봉/망고/자몽/청귤 에이드 : 변동가격(업주문의) 생과일을 갈아넣은 수박쥬스 : 변동가격(업주문의) 맥주 : 변동가격(업주문의) 와인 : 변동가격(업주문의) 블루베리요거트스무디 : 변동가격(업주문의) 망고선셋스무디 : 변동가격(업주문의) 생크림아인슈패너 : 변동가격(업주문의) 딸기요거트스무디 : 변동가격(업주문의) 크로플 : 변동가격(업주문의) 라오겐 : 변동가격(업주문의) 백록담말차라떼 : 변동가격(업주문의) 생크림단팥빵 : 변동가격(업주문의) 타르트 : 변동가격(업주문의) 쇼콜라 : 변동가격(업주문의) 그외 20여가지 베이커리 : 변동가격(업주문의) 메뉴변동있음 : 변동가격(업주문의), isRecommended: False, change: True}]",https://ldb-phinf.pstatic.net/20220711_122/1657534491254w4klS_JPEG/m1.jpg,457,음식점,"델문도,https://ldb-phinf.pstatic.net/20160826_163/1472178646647JxGxw_JPEG/176776516063874_2.jpeg,36859834","에오마르,https://ldb-phinf.pstatic.net/20200619_291/1592545964751D2mJq_JPEG/QwPiTfTILWw25pE7negd1EAq.jpg,1256054205","그리울땐제주,https://ldb-phinf.pstatic.net/20190104_108/15465701922308UUBx_JPEG/8LwEl1sq3Tj5W4mfUnpRf-uN.jpg,881739252"
36823910,협재수우동 협재점,126.2424392,33.39664441,제주특별자치도 제주시 한림읍 협재1길 11,064-796-5830,"정통 일식우동, 돈가스,튀김","일식수타우동, 우동, 돈가스, 튀김, 자작냉우동",https://ldb-phinf.pstatic.net/20200527_75/1590575072929rsLmq_JPEG/hVmj0erWahRIZ7H4JjO_F4Eg.jpg,"일식,일식당",매일 10:30~17:00 매주 화요일 휴무,"수우동 : 9,000원/ 유부우동 : 10,000원/ 자작냉우동 : 12,000원/ 비빔냉우동 : 12,000원/ 핑거돈가스정식 : 15,000원/ 둥글넙적어묵우동 : 10,000원/ 돈가스단품 : 8,000원/ 모듬튀김 : 8,000원/ 고로케 : 5,000원/",https://ldb-phinf.pstatic.net/20220707_99/1657141169623jRD2X_JPEG/90825C08-7AC7-4BA1-B56A-B2A99AA54C69.jpeg,2199,음식점,"온오프,https://ldb-phinf.pstatic.net/20200520_39/1589975249608C8cGp_JPEG/8wyPgYMq1yC_pqJ0Eaasd-Rw.jpg,1894902699","513텐동,https://ldb-phinf.pstatic.net/20220523_161/16532799780405ukNc_JPEG/K_tak_3842.jpg,1466059040","심바카레,https://ldb-phinf.pstatic.net/20170525_92/1495690416101b1HC3_JPEG/186474565579077_0.jpeg,878974631"
11595461,순옥이네명가,126.465029,33.50546109,제주특별자치도 제주시 도공로 8,064-743-4813,"제주 여름밤의 명소로 잘 알려진 도두동에 전복요리집입니다. 물질만 벌써 40여년. 직접 따온 전복,성게,오분작 등의 신선하고 믿을 수 있는 자연산으로 요리한 이 곳 순옥이네 명가에 오시면 이름을 걸고 대접하는 만큼 정성을 다한 요리를 맛보실 수 있습니다. 언제오셔도 변함없는 맛과 넉넉한 인심으로 즐거운 시간을 가지실 수 있으며 바로 옆 순옥이네 해산물에서는 싱싱함이 넘쳐흐르는 제주 자연산 해물을 저렴한 가격에 구입하실 수도 있습니다. 항상 밝은 모습으로 오시는 모든 분들께 좋은 음식과 기분좋은 만남을 전해드리고자 노력하고 있는 이 곳 순옥이네에서 제주 바다의 깊은 맛을 맛보시길 바랍니다. 감사합니다.","전복물회, 물회, 성게미역국, 해물뚝배기",https://ldb-phinf.pstatic.net/20190112_282/1547276845033b2zvo_JPEG/f7vQqjC1DWQleghLQuJJZGy9.jpeg.jpg,"한식,전복요리",매일 09:00~21:00 브레이크타임 15:30~17:00. 마지막주문 20:30 / 화요일 휴무 둘째주. 넷째주 화요일 휴무,"소라 : 20,000원/ 성게 : 30,000원/ 한치물회 : 12,000원/ 순옥이네물회 : 16,000원/ 전복물회 : 16,000원/ 전복뚝배기 : 16,000원/ 전복(자연산) : 변동가격(업주문의) 전복(1인) : 40,000원/ 모듬해산물 : 50,000원/ 전복찜 대 : 50,000원/ 전복회 대 : 50,000원/ 고등어구이 : 10,000원/ 전복죽 : 13,000원/ 돌멍게 : 20,000원/ 해삼 : 20,000원/ 성게미역국 : 11,000원/ 옥돔구이 : 20,000원/ 뿔소라꼬치 : 10,000원/ 전복장 : 25,000원/",https://ldb-phinf.pstatic.net/20190715_52/1563177976446wAMOW_JPEG/UAaWA6LO0R2WmrcLHDqUEtic.jpg,2301,음식점,"물항식당 탑동점,https://ldb-phinf.pstatic.net/20150831_276/1441026276575h67ip_JPEG/11712303_0.jpg,11712303","네거리식당,https://ldb-phinf.pstatic.net/20210722_123/1626938269126MbCXd_PNG/vp5kfdtUXP0sm7fR8MxoO9P4.png,19873758","낙지네,https://ldb-phinf.pstatic.net/20180104_12/1515030194682FL3y0_JPEG/pg80Vsjwm29B1JAwyeyxgo15.jpg,37897669"
19872990,이춘옥원조고등어쌈밥,126.4186804,33.48898605,제주특별자치도 제주시 애월읍 일주서로 7213,064-799-9914,당신의 의미있는 시간을 이곳에서 사용하기로 결정한 선택에 깊이 감사드립니다 완벽한 시간으로 기억되도록 맛있는 음식과 미소로 보답하겠습니다 항상 최선을 다해 노력하겠습니다 감사합니다,"제주 애월 고등어쌈밥, 제주 이호테우해변 고등어쌈밥, 제주 공창근처 갈치조림, 제주 공항근처 통갈치구이, 제주 애월 통갈치",https://ldb-phinf.pstatic.net/20190620_278/15610040523553bL8W_JPEG/ORwGoQRCKhvBm_qU_fmcAXG_.JPG.jpg,"한식,쌈밥",매일 09:30~20:30 주문마감 20:00 / 브레이크타임 16:00~17:00 수요일 휴무,"고등어 묵은지찜 : 36,000원/ 은갈치조림 2인 : 70,000원/ 통갈치구이 大(2인) : 80,000원/ 전복뚝배기 1인 : 15,000원/ 옥돔구이 2인 : 34,000원/ 전복죽 1인 : 15,000원/ 수제왕돈가스 1인 : 15,000원/ 고등어구이 2인 : 20,000원/",https://ldb-phinf.pstatic.net/20220317_189/16475166645963AvQm_JPEG/1647516614884.jpg,3964,음식점,"서귀포흑돼지명가,https://ldb-phinf.pstatic.net/20171107_57/1510036859126ajk0N_JPEG/qLgijyZB4XU7wWRjDwKXMiRc.jpg,13533390","어진이네 횟집,https://ldb-phinf.pstatic.net/20190829_43/1567015313190wlLaE_JPEG/bN4Cx4G0tUxtk5LQIa3ClNL4.jpg,1931182602","면도롱,https://ldb-phinf.pstatic.net/20210618_170/1623984866957637JH_JPEG/Jy56Zmoyx2_Vlgln3e5rKmZ2.jpeg.jpg,1841608162"
1374828905,제주광해 애월,126.3904154,33.4877456,제주특별자치도 제주시 애월읍 애월해안로 867 2층,064-713-4789,항상 신선한 재료와 정성을 다하는 제주도 갈치조림 맛집 제주광해애월본점입니다.,"제주갈치조림, 제주애월갈치조림, 제주도갈치조림, 제주시갈치조림, 제주공항근처갈치조림",https://ldb-phinf.pstatic.net/20180706_269/15308603890736BOXy_JPEG/LjaxbO_L5Cq96ny-ey56XVEw.jpg,"한식,향토음식",매일 10:00~21:00,"갈치조림 : 41,000~79,000원/ 고등어조림 : 29,000~59,000원/ 전복뚝배기 : 16,000원/ 해물뚝배기 : 11,000원/ 성게미역국 : 12,000원/ 갈치구이 SET : 69,000원/ 광해모둠大 : 165,000원/ 광해모둠小 : 100,000원/ 항공모함 통갈치조림 대 : 169,000원/ 항공모함 통갈치조림 소 : 119,000원/",https://ldb-phinf.pstatic.net/20211014_288/1634177192034HVAks_JPEG/Gac7O-hF_xy8O70WNId6sNwQ.jpeg.jpg,3448,음식점,"제주공항그때그집,https://ldb-phinf.pstatic.net/20220619_150/1655572399720Va3Th_JPEG/284607972_404749191548647_7902242597222940568_n.jpg,1165012902","풍차와 전복,https://ldb-phinf.pstatic.net/20220315_73/1647338509667FipSv_JPEG/IMG_0742.jpg,43421373","범선집밥,,961308947"
31204698,곰막식당,126.7206057,33.55687,제주특별자치도 제주시 구좌읍 구좌해안로 64,064-727-5111,제주 구좌읍 동복리에 위치한 곰막. 성게국수와 회국수 제철 한치회를 착한 가격으로 맛볼 수 있는 맛집 입니다.식당 한켠에는 대형 수족관이 있어서 아이들과 함께 둘러보시는것도 좋습니다. :),"제주도, 한치회, 성게국수, 회덮밥, 회국수",https://ldb-phinf.pstatic.net/20200409_219/1586430081464lGAOa_JPEG/_-TMWPnDmTfkGELi6o7rIpDz.jpg,"음식점,한식","매일 09:30~21:00 마지막 주문 20시, 식사 가능 시간 21까지, 매월 첫째주,셋째주 화요일 휴무","회국수 : 11,000원/ 고등어회 : 38,000원/ 전복회 : 10,000원/ 다금바리 1kg(자연) : 110,000원/ 성게국수 : 12,000원/ 회덮밥 : 12,000원/ 고등어구이 : 13,000원/ 활우럭탕 : 15,000원/ 활전복죽 : 15,000원/ 대가리구이 : 15,000원/ 가마솥밥 : 3,000원/ 산낙지 : 15,000원/ 활한치국수 : 15,000원/ 물회 : 18,000원/ 넙치/광어 : 35,000원/ 참돔 : 48,000원/ 잿방어 : 30,000원/ 멍게 : 10,000원/ 다금바리 1kg(양식)) : 70,000원/ 활한치회 : 25,000원/ 밀치회(1~2인분) : 35,000원/ 밀치회(3~4인분) : 58,000원/ 활한치덮밥 : 18,000원/ 뿔소라숙회 : 20,000원/ 도다리(3~4인분) : 65,000원/ 세트메뉴 : 48,000원/",https://ldb-phinf.pstatic.net/20210316_6/1615875130529yILcv_JPEG/4mCETNG0pL5t7-tNPJBc7KBO.jpg,2079,음식점,"법환포구식당,,1184740860","해녀촌,https://ldb-phinf.pstatic.net/20151104_165/1446624563573euQMC_JPEG/167054573942105_0.jpg,12886879","태흥횟집,https://ldb-phinf.pstatic.net/20180219_227/15190060496847pcgM_PNG/VXsMDfSEhmKBWtYqPkR1fMdn.png,16944440"
11727502,삼대국수회관 본점,126.530101,33.5068841,제주특별자치도 제주시 삼성로 41,064-759-6645,"<제주삼대국수회관은 직영점이 없습니다>제주도오면 꼭 한 번은 반드시 들러야 하는 리얼 맛집, 삼대국수회관입 본점입니다. 매일 24시간 질좋은 제주청정돈사골로 육수를 우려내어 깊고 진하면서 잡내없는 육수는 기본, 매일 오픈과 동시에 2시간마다 삶는 제주청정돈육으로 싱싱한 돼지고기를 사용합니다. 한 번 맛보면 재방문율 100%! 제주도에 오셔서 고기국수의 매력에 빠져보세요!","제주도고기국수, 제주시고기국수, 제주삼대국수, 제주도돔베고기, 제주고기국수",https://ldb-phinf.pstatic.net/20210217_17/1613542785488EKVD6_JPEG/HC_AAmdJJRn7TBUYpJzt7Tbs.jpg,"한식,국수",매일 08:30~02:00 연중무휴,"고기국수 : 8,500원/ 비빔국수 : 8,500원/ 돼지국밥 : 8,500원/ 멸치국수 : 7,000원/ 멸·고기국수 : 8,500원/ 도가니스지국수 : 8,500원/ 열무국수(계절메뉴) : 8,500원/ 콩국수(계절메뉴) : 8,500원/ 돔베고기 세트 : 31,000원/ 물만두 세트 : 24,000원/ 도가니스지수육 : 22,000원/ 아강발 : 18,000원/ 돔베고기 (대) : 29,000원/ 물만두 (대) : 13,000원/ 돔베고기 중 : 15,000원/ 물만두 중 : 8,000원/",https://ldb-phinf.pstatic.net/20220531_6/1653965473162N1A0L_JPEG/%BB%EF%B4%EB%B1%B9%BC%F6%B8%DE%B4%BA.jpg,1863,음식점,"대광식당,https://ldb-phinf.pstatic.net/20210403_173/1617425189038lG8Hi_JPEG/f4Hb5xDfcTKqdiCiY3xdldih.jpeg.jpg,16717539","청수냉면불고기,https://ldb-phinf.pstatic.net/20210105_166/1609828297330wxYjJ_JPEG/F8LrACMQh2WdYqv-bG9s3HaG.jpg,1516960768","자매국수,https://ldb-phinf.pstatic.net/20220531_107/1654003363293wQ9Ky_PNG/%C0%DA%B8%C5%B1%B9%BC%F6_%BF%B5%BE%F7%BD%C3%B0%A3.png,37060300"
1256246739,원앤온리,126.319238,33.2392344,제주특별자치도 서귀포시 안덕면 산방로 141,064-794-0117,전 세계 단 한곳뿐인 뷰와 분위기를 품다' 제주에서 가장 길고 고요한 황우치해변을 홀로 품고 명승 산방산을 지붕삼은 유일한 곳 명실상부 독보적인 제주 여행 필수코스로 자리매김한 원앤온리에서 가장 특별한 여행을 완성해주세요!,"제주도카페, 서귀포카페, 제주오션뷰카페, 제주브런치카페, 제주디저트카페",https://ldb-phinf.pstatic.net/20201005_225/1601865215887jYtMC_JPEG/nc1rfIzUxa7gppjd0ESG2fOx.jpg,"카페,디저트,카페",매일 09:00~20:00 Last Order 19:30연중무휴,"산방산 케이크 : 12,000원/ 바나나 크럼블 : 12,000원/ 원/앤온리 브런치 : 18,000원/ 에그 베네딕트 : 18,000원/ 아보카도샌드위치 : 16,000원/ 오리엔탈 비프 샐러드 : 18,000원/ 수제리코타치즈샐러드 : 18,000원/ 라구 파스타 : 16,000원/ 비스크 로제파스타 : 18,000원/ 통살치킨버거 : 16,000원/ 치킨 파르마 : 16,000원/ 순살치킨&감자튀김 : 22,000원/ 아메리카노 : 7,000원/ 카페라떼 : 8,000원/",https://ldb-phinf.pstatic.net/20220525_116/1653457499969pSa90_PNG/%B4%EB%C1%F6_1.png,4545,음식점,"오르다카페,https://ldb-phinf.pstatic.net/20191204_241/1575438656823yPHHy_JPEG/4nnc-Lgeo8gjdBoJ08zKGvOR.jpg,1211354901","허니문하우스,https://ldb-phinf.pstatic.net/20181122_234/1542871801692fHwzt_JPEG/OncSnts0wPCfidZ8SZ5EhsoZ.JPG.jpg,1649804520","휴일로,https://ldb-phinf.pstatic.net/20220517_287/1652799458094oVnsI_JPEG/%C8%DE%C0%CF%B7%CE_%285%29.jpg,1277648050"
1795151167,서귀피안 베이커리,126.9219377,33.4352519,제주특별자치도 서귀포시 성산읍 신양로122번길 17 2F,064-783-7884,"제주 동쪽에 위치한 최대규모 대형카페 섭지코지의 이국적인 해변을 전 좌석 45M 파노라마 오션뷰로 만나보실 수 있는 제주 여행 필수코스 서귀피안 베이커리입니다.광치기해변, 성산일출봉, 아쿠아플라넷, 섭지코지 등 유명 관광지 근처에 위치해 있어 제주 동쪽 여행 시 방문하시기 편리하며, 신양섭지해변의 에메랄드 빛 바다가 바로 맞닿아 있어 환상적인 오션뷰를 만나보실 수 있습니다.저희 서귀피안베이커리에서 제주 여행의 특별한 추억을 남겨보세요.주차장 완비 단체석 완비","제주도카페, 서귀포카페, 제주카페, 성산카페, 제주오션뷰카페",https://ldb-phinf.pstatic.net/20220513_206/1652402449324guPCM_JPEG/2736124575472258757-0.jpg,"음식점,카페,디저트",매일 08:00~21:00 마지막 주문 20:30,"플레인크로아상 : 변동가격(업주문의) 아몬드크로아상 : 변동가격(업주문의) 땅콩크로아상 : 변동가격(업주문의) 청포도크로아상 : 변동가격(업주문의) 얼그레이크로아상 : 변동가격(업주문의) 녹차크로아상 : 변동가격(업주문의) 몽블랑 : 변동가격(업주문의) 레몬크로핀 : 변동가격(업주문의) 청귤크로핀 : 변동가격(업주문의) 쏠티카라멜크로핀 : 변동가격(업주문의) 크림한가득크로핀 : 변동가격(업주문의) 인절미크림빵 : 변동가격(업주문의) 쿠앤크크림빵 : 변동가격(업주문의) 초코크림빵 : 변동가격(업주문의) 로투스크림빵 : 변동가격(업주문의) 굿모닝연유 : 변동가격(업주문의) 빨미까레 : 변동가격(업주문의) 뺑오쇼콜라 : 변동가격(업주문의) 통팥비스켓파이 : 변동가격(업주문의) 바질스틱 : 변동가격(업주문의) 어니언브레드 : 변동가격(업주문의) 바질크림치즈 : 변동가격(업주문의) 크림치즈 바질토마토 : 변동가격(업주문의) 소세지빵 : 변동가격(업주문의) 맵따매워 : 변동가격(업주문의) 대파파 : 변동가격(업주문의) 팥앙금빵 : 변동가격(업주문의) 우유크림단팥빵 : 변동가격(업주문의) 올리브 깜빠뉴 : 변동가격(업주문의) 무화과크림치즈 깜빠뉴 : 변동가격(업주문의) 크렌베리치즈 깜빠뉴 : 변동가격(업주문의) 카야잼앙버터 : 변동가격(업주문의) 바게트앙버터 : 변동가격(업주문의) 바게트 : 변동가격(업주문의) 배치브루 : 6,500원/ 서귀피안에이드 : 8,500원/ 오션레몬에이드 : 8,500원/ 카페라떼 : 7,500원/ 아메리카노 : 7,000원/ 일출아이스티 : 7,000원/ 복숭아아이스티 : 7,000원/ 초콜릿라떼 : 7,500원/ 녹차라떼 : 7,500원/ 한라봉차 : 8,500원/ 에스프레소 : 7,000원/ 카페모카 : 8,500원/",https://ldb-phinf.pstatic.net/20220509_71/1652070639298anvjS_JPEG/%BC%AD%B1%CD%C7%C7%BE%C8%B8%DE%B4%BA%C6%C7%BC%F6%C1%A422.jpg,439,음식점,"바다바라,https://ldb-phinf.pstatic.net/20220405_130/1649170529389DpLvk_PNG/%B0%A3%C6%C7.png,1892828298","루아앤티그리,https://ldb-phinf.pstatic.net/20220112_285/1641996651330ul9V9_JPEG/KakaoTalk_20220112_230706128.jpg,1090366749","버밀리온,https://ldb-phinf.pstatic.net/20210530_14/16223504516022s3OT_JPEG/78WF4xKHFII4d2baTEGV-AYa.jpeg.jpg,1387958560"
1667822207,더클리프,126.4149291,33.2444575,제주특별자치도 서귀포시 중문관광로 154-17,064-738-8866,"The Cliff CAFE / BEACH PUB / LOUNGE / THE CLIFF GOODS SHOP중문해수욕장에 위치한 저희 더클리프는 수제 피자, 수제버거등을 판매하는 다이너와 썬셋라운지, 프라이빗 공간을 포함한 복합 어뮤즈먼트 공간으로, 중문 해변과 썬셋을 감상하실 수 있는 환상적인 뷰를 가지고 제주 최고의 잇 플레이스가 되고자 합니다.더 클리프에서는 제주를 기반으로 다양하고 재미있는 파티와 문화공연, 페스티벌을 기획하고 있으며, 하우스와 테크노에 흠뻑 젖을 수 있는 디제이 파티도 즐길 수 있습니다. 평일 오후 4시부터 마감까지, 주말 오후 1시부터 마감까지 디제잉공연을 하고 있습니다. 매일 새롭고 유니크한 장소, 세련된 음악을 원하시는 분들, 더클리프에서 멋진 오션 뷰와 썬셋을 감상해 보시기 바랍니다.버거,피자, 펍,커피,음료, 호프, 라운지, 칵테일","제주도카페, 제주도펍, 제주클럽, 제주라운지, 서귀포클럽",https://ldb-phinf.pstatic.net/20211115_37/1636943232649FFh0b_JPEG/1635731483826-0.jpg,"음식점,카페,디저트",매일 10:00~01:00 (월~목) / 주말 10:00~02:00 (금-일),"현무암치킨 : 26,000원/ 흑돼지 멜젓 파스타 : 20,000원/ 더클리프 피자 : 32,000원/ 클럽버거 : 20,000원/ 색달비치 : 17,000원/ 제주바당 : 15,000원/ 클리프 모히또 : 17,000원/ 피치블라썸 : 16,000원/",https://ldb-phinf.pstatic.net/20220429_125/1651199852205INkcX_JPEG/ccafe.jpg,2857,음식점,"일월 선셋 비치,https://ldb-phinf.pstatic.net/20201111_178/1605071041876w8Gzu_JPEG/BuZJ-YAsPeN4_H1U_x11BRJ4.jpg,1391078714","원앤온리,https://ldb-phinf.pstatic.net/20201005_225/1601865215887jYtMC_JPEG/nc1rfIzUxa7gppjd0ESG2fOx.jpg,1256246739","썬셋클리프,https://ldb-phinf.pstatic.net/20220221_32/1645428923170qBwCz_JPEG/1.jpg,1430869668"
1153699096,미쁜제과,126.1800996,33.2691404,제주특별자치도 서귀포시 대정읍 도원남로 16 미쁜제과,070-8822-9212,"‘미쁘다’는 ‘믿음직스럽다’의 순우리말입니다.미쁜제과는 언제나 신선하고 건강한빵과 음료를 만들기 위해 노력합니다.우리 전통의 멋을 담은 한옥에서, 방문해주시는 모든 분들께 항상 믿음직스러운 빵과 음료를 제공해드리고자 합니다.아름다운 제주의 한옥, 미쁜제과 안에서모두가 함께 행복해질 수 있길 희망합니다.","제주도카페, 제주한옥카페, 서귀포카페, 제주카페, 제주베이커리카페",https://ldb-phinf.pstatic.net/20191026_108/1572092882300cf16g_JPEG/k-xG81M27Nc-cro8frRJtWHy.jpg,"음식점,카페,디저트",매일 09:00~20:00 연중무휴,"아메리카노 : 5,500원/ 오리지널 밀크티 : 7,500원/ 얼그레이 밀크티 : 7,500원/ 미쁜크림라떼 : 7,000원/ 에스프레소 : 5,500원/ 카라멜라떼 : 6,500원/ 카페라떼 : 6,000원/ 카페모카 : 6,500원/ 플랫화이트 : 6,000원/",https://ldb-phinf.pstatic.net/20210607_207/1623074868429xRqEU_PNG/qYuSfKztyK0BKKcbgRswWVY9.png,1069,음식점,"카페갤럭시아,https://ldb-phinf.pstatic.net/20220721_135/1658389405991jiLMx_JPEG/3.jpg,1014021659","트라이브,https://ldb-phinf.pstatic.net/20220502_239/165147632415167hfi_JPEG/BD9ECFFA-DDF7-4FE4-99FE-9279DB1B6414.JPG,1089520721","오지힐제주,https://ldb-phinf.pstatic.net/20201031_115/160408533539451oif_JPEG/5HL0vm8qEfRjsqfQYop7PwRV.jpeg.jpg,1382577279"
1383910337,명월국민학교,126.2648441,33.38875361,제주특별자치도 제주시 한림읍 명월로 48,070-8803-1955, ,"제주도카페, 한림카페, 제주카페, 폐교카페",https://ldb-phinf.pstatic.net/20181004_107/1538635035299SfXBR_JPEG/oxN6lqLqTcN5gixuPE-dZcHL.jpg,"음식점,카페,디저트","매일 11:00~19:00 휴무,특이사항은 인스타 공지 확인 및 전화문의","명월차(따뜻한) : 6,500원/ 티라미슈 라떼 : 6,500원/ 명월모카 : 6,500원/ 명월카라멜 : 6,500원/ 명월라떼, 명월치노 : 6,500원/ 차 - 4종류 : 5,500원/ 너에게사과 : 6,500원/ 명월바닐라 : 6,500원/ 자몽차 : 6,500원/ 명월 커피 : 5,500원/ 청귤차 : 6,500원/ 어린이음료 5종 : 3,500원/ 에이드3종 : 6,500원/ 미숫가루 라떼 : 6,500원/ 초코 라떼 : 6,500원/ 녹차 라떼 : 6,500원/ 쿠키라그래(쿠키초코 라떼) : 6,500원/ 명월 밀크티 ice : 6,500원/ 명월 밀크티 hot : 6,500원/ 명월크로플 : 7,000원/ 케이크 2종 : 7,000원/ 명월 아이스크림(바닐라/초코) : 4,000원/ 명월 떡복이 외 분식 : 4,000원/ 크로와상4종 : 4,500~5,000원/ 명월감귤쥬스 : 6,500원/",https://ldb-phinf.pstatic.net/20191209_268/1575882432186RBPDB_JPEG/M-Kk-9_9SBPfHuwetVzPPz0i.jpeg.jpg,1824,음식점,"이스틀리카페&현애원,https://ldb-phinf.pstatic.net/20220715_149/1657851053615jBBJd_JPEG/KakaoTalk_20220715_110748952_01.jpg,1947771227","엘파소,https://ldb-phinf.pstatic.net/20220724_275/16586570113080EVYk_JPEG/Screenshot_20220703-112438_Instagram.jpg,1986490157","풀베개,,1090905770"
11714447,쌍둥이횟집본점,126.5629102,33.24661752,제주특별자치도 서귀포시 중정로62번길 14 쌍둥이횟집,064-762-0478,,"제주도횟집, 제주도민횟집, 유명한횟집, 푸짐한횟집, 쌍둥이횟집",https://ldb-phinf.pstatic.net/20150831_120/1441026902460nREHL_JPEG/11714447_0.jpg,"한식,생선회",매일 11:00~22:30 연중무휴,"4인 자특 모듬스페샬 : 200,000원/ 4인 특 모듬스페샬 : 160,000원/ 4인 모듬스페샬 : 130,000원/ 2인 특 모듬스페샬 : 100,000원/ 2인 스페샬 : 70,000원/ 다금바리 : 변동가격(업주문의) 갯돔 : 변동가격(업주문의) 구문쟁이(능성어) : 220,000원/ 뱅어돔(구리) : 180,000원/ 참돔 : 180,000원/ 점심특선회 : 80,000원/ 점심 매운탕 : 10,000원/ 점심 지리 : 10,000원/ 점심 회덮밥 : 10,000원/ 점심 초밥 : 15,000원/",https://ldb-phinf.pstatic.net/20200810_274/1597054142495GWrlv_JPEG/rroJnwF8oLHVTwag3fPVXfL4.jpg,2068,음식점,"쌍둥이횟집본점신관,,1093693352","도남오거리식당 외도점,https://ldb-phinf.pstatic.net/20200418_63/1587199722128E1zJE_JPEG/0myMxlFhcsLTamF1LOKD8m3M.jpg,13444839","제주명가두루치기,https://ldb-phinf.pstatic.net/20211013_67/1634053606249sb6Wy_JPEG/xJYX_ynWvU1FlPi6SLaLvG_A.jpg,16899899"
1864290419,인스밀,126.2292446,33.2384679,제주특별자치도 서귀포시 대정읍 일과대수로27번길 22 1층,010-6844-5661,in's mill The grain house,"제주미숫가루, 대정카페, 제주도카페, 제주보리, 제주카페",https://ldb-phinf.pstatic.net/20220529_274/1653832335636yfNYp_JPEG/20220529_151601.jpg,"카페,디저트,베이커리",매일 10:30~20:30 4월~10월 (last order 19:30) / 매일 10:30~19:30 11월~3월 (last order 18:30),"보리개역 : 6,000원/ 바닐라빈 라떼 : 7,000원/ 보리 아이스크림 : 7,000원/ 아메리카노 : 6,000원/ 라떼 : 6,500원/ 카카오 : 6,000원/ 보리녹차 : 6,000원/ 보리홍차 : 6,500원/ 보리과즐 : 4,000원/ 보리 스콘 : 4,000원/ 마농 스콘 : 4,500원/",https://ldb-phinf.pstatic.net/20220415_4/1650003021170GgAAe_JPEG/%C0%CE%BD%BA%B9%D0_%C7%CF%C0%CC%B6%F3%C0%CC%C6%AE_%B8%DE%B4%BA.jpg,1752,음식점,"조천카페 함덕카페 어반정글 그레이밤부,https://ldb-phinf.pstatic.net/20220414_240/1649913541233on09N_JPEG/1649838636651.jpg,1779237096","뉴저지카페 감귤체험장,https://ldb-phinf.pstatic.net/20170513_277/1494661418934e9o9r_JPEG/186463567357775_0.jpeg,279027473","드르쿰다 in 성산,https://ldb-phinf.pstatic.net/20191030_85/1572417318561btpzk_JPEG/inL2gDgxw46cI9p_q6K1RaQw.jpg,1838327534"
1986490157,엘파소,126.3259223,33.2453796,제주특별자치도 서귀포시 안덕면 화순로 191-43 1층,070-4548-5838,노랑노랑 핫플 <엘파소> 7월 11일부터 오전9시 오픈합니다,"제주서귀포테라스카페, 제주서귀포오션뷰카페, 제주서귀포스페셜티, 제주서귀포유기농빵",https://ldb-phinf.pstatic.net/20220724_275/16586570113080EVYk_JPEG/Screenshot_20220703-112438_Instagram.jpg,"음식점,카페,디저트",매일 10:00~20:30 마지막 주문 (오후 8시),"핑크한라봉에이드 Pink Ade : 8,000원/ 엘파소페너 Elpasopanner : 9,000원/ 오션 블루 Ocean Blue : 8,000원/",https://ldb-phinf.pstatic.net/20220705_292/1656989754734PCdXd_JPEG/1656904454735.jpg,398,음식점,"하라케케,https://ldb-phinf.pstatic.net/20220207_109/16442157490587O6EY_JPEG/KakaoTalk_20220204_115725526_04.jpg,1214681781","카페갤러리,https://ldb-phinf.pstatic.net/20200304_285/1583295407891TQHhN_JPEG/FptG9OPu_8MleDBVnX0f87mn.jpg,1196124840","조천카페 함덕카페 어반정글 그레이밤부,https://ldb-phinf.pstatic.net/20220414_240/1649913541233on09N_JPEG/1649838636651.jpg,1779237096"
1838327534,드르쿰다 in 성산,126.9190808,33.4444695,제주특별자치도 서귀포시 성산읍 섭지코지로25번길 64,064-901-2197,"밤낮 없이 핫한 성산의 핫플레이스 ' 드르쿰다 in 성산 ' 1인1음료에 입장료가 포함되어 있습니다 회전목마 매일 오후 3시 / 5시 고정운행 합니다[기상상황으로 인해 불가 할 수 있음.]낮엔 디즈니, 밤엔 라라랜드 느낌으로 변하는 초대형 스튜디오 성산일출봉뷰의 프라이빗한 드르쿰다 해변에서 일광욕까지!낮엔 동화같은 카페에서 커피한잔 밤엔 로맨틱한 펍에서 즐기는 피자와 맥주!","제주성산카페, 성산일출봉카페, 광치기해변카페, 제주동쪽카페, 섭지코지카페",https://ldb-phinf.pstatic.net/20191030_85/1572417318561btpzk_JPEG/inL2gDgxw46cI9p_q6K1RaQw.jpg,"음식점,카페,디저트","매일 09:00~22:00 피자 라스트오더 20:00, 음료 라스트오더 21:00","입장료 : 무료 제주도민 : 무료 아메리카노 : 6,000원/ 카페라떼 : 6,000원/ 페퍼로니피자 : 19,800원/ 콘치즈피자 : 19,800원/ 허니치즈피자 : 19,800원/ 천혜향 요거트 스무디 : 8,800원/ 제주산 한라봉 에이드 : 8,800원/ 제주산 한라봉차 : 8,800원/",https://ldb-phinf.pstatic.net/20220117_31/1642378211992Rqiea_PNG/2201_%B8%DE%B4%BA%C6%C4%A4%C3%A4%A4.png,609,음식점,"조천카페 함덕카페 어반정글 그레이밤부,https://ldb-phinf.pstatic.net/20220414_240/1649913541233on09N_JPEG/1649838636651.jpg,1779237096","더클리프,https://ldb-phinf.pstatic.net/20211115_37/1636943232649FFh0b_JPEG/1635731483826-0.jpg,1667822207","브라보비치,https://ldb-phinf.pstatic.net/20220201_297/1643706233896tKaOc_JPEG/083B5FB7-EE9D-4F4B-A70D-951F7B33BE94.jpeg,1195073144"
1648347549,피즈 애월,126.311845,33.4615323,제주특별자치도 제주시 애월읍 애월로 29 1층 피즈,010-8445-5148,"제주 애월에서 시작한 Fizz Burger(피즈)는 시원한 제주 바다와 닮아있는 트랜디한 수제버거 입니다. Fizz의 사전적 의미는 탄산음료의 뚜껑을 열 때 생기는 소리의 의성어이기도 합니다. 시원한 바닷가의 도시 Jeju에서 펼쳐지는 많은 요소들을 '피즈'에서 표현했습니다. 패티부터 번까지 모두 직접 만들며, 가볍지만 가볍지 않은 매력적인 수제버거를 애월의 환상적인 바닷가 앞! 피즈에서 함께 즐겨보세요!","제주수제버거, 애월수제버거, 피즈버거, 피즈제주, 제주피즈버거",https://ldb-phinf.pstatic.net/20220412_31/1649732542741iBOQD_JPEG/KakaoTalk_20220329_131346378_04.jpg,"음식점,햄버거",매일 10:00~20:00 Last Order 19:30,"아메리칸버거 : 8,900원/ 피즈버거 : 8,900원/ 치즈갈릭감자튀김 : 5,300원/ 더블버거 : 10,900원/ 치즈버거 : 8,600원/ 불고기버거 : 7,400원/ 핫치킨버거 : 8,900원/ 오지치즈감자튀김 : 5,300원/ 오리지널감자튀김 : 4,000원/ 바닐라쉐이크 : 6,000원/ 땅콩쉐이크 : 6,000원/ 제주감귤주스 : 4,000원/ 핫윙(6pcs) : 4,800원/ 해쉬브라운(2pcs) : 3,000원/ 내쉬빌치킨 : 6,800원/",https://ldb-phinf.pstatic.net/20211029_135/1635515234523OJN3W_PNG/Px1rEZNMz5cIXe7HTQKtfbdf.PNG.png,604,음식점,"홈즈,https://ldb-phinf.pstatic.net/20220618_288/1655547460058PnJLN_JPEG/KakaoTalk_20220616_182844215_03.jpg,1207185561","풍미독서,https://ldb-phinf.pstatic.net//20170802_85/1501665610278OknoD_PNG/Screenshot_2017-08-02-18-18-34-1.png,844746055","마루나키친,https://ldb-phinf.pstatic.net/20220613_104/1655132219598hRAWU_JPEG/A4FB2594-3156-49D0-9CCA-4C27163FAC08.jpeg,1328310071"
1146342571,숙성도 중문점,126.4075197,33.2583286,제주특별자치도 서귀포시 일주서로 966,064-739-5213,"숙성도중문점은 매장 사정상 원격줄서기 불가입니다 대기순번이 빨라질수 있으니 매장앞에서 대기해주세요! 숙성도중문점 웨이팅방법^^ 오전 11시부터 현장대기 시작12시 오픈 14:30~16:00 브레이크타임 오후 3시부터 현장대기등록 시작4시부터 오픈 입장9시 마지막 입장제주가 낳고, 기른 100% 제주 흑돼지만을 사용하며 깐깐한 원육선별과 섬세한 교차숙성 기술로 숙성고기의 정점이 무엇인지 보여드리겠습니다. 진정한 제주흑돼지를 맛보고 싶으시면 프리미엄 숙성육 퀄리티 하우스 제주 숙성도 중문점을 찾아주세요!","제주숙성도, 숙성도중문점, 제주흑돼지, 흑돼지구이, 흑돼지삼겹살",https://ldb-phinf.pstatic.net/20200416_222/1587018592964BsJy0_JPEG/lyiKlUM5YSBrWVUPDlZJkkGD.jpg,"한식,돼지고기구이",매일 12:00~23:00 15:00~16:30 브레이크타임/라스트오더 21:30,"교차숙성흑돼지(앞다리 200g) : 20,000원/ 720 숙성 삼겹살 (200g) : 21,000원/ 720 숙성 1% 목살 200g : 21,000원/ 960 숙성 흑뼈등심 (350g) : 38,000원/ 720숙성 뼈목살 (360g) : 37,000원/ 갈치속젓 볶음밥 : 8,000원/ 된장술밥 : 8,000원/ 동치미열무국수 : 8,000원/ 가자미 회 비빔국수 : 8,000원/ 560 통항정 (200g) : 21,000원/ 960 숙성 나비갈비 300g : 31,000원/",https://ldb-phinf.pstatic.net/20220520_270/1653031290365B8leA_JPEG/1652945103566.jpg,1411,음식점,"숙성도 노형본관,https://ldb-phinf.pstatic.net/20181027_50/1540620793086Xjlmm_JPEG/DHKknkQwkfax0y2xVYw9bC_2.jpeg.jpg,1249805999","숙성도F&B,,1711414740","천짓골식당,https://ldb-phinf.pstatic.net/20190525_71/1558767946861aM98F_JPEG/d12SCuzq14OBl9ZPWMWErYsc.jpg,11708750"
38265405,고집돌우럭 제주공항점,126.5280206,33.51628527,제주특별자치도 제주시 임항로 30,064-722-1008,네이버 카카오 구글 고객 리뷰 최고 평점 (4.8점) 트립어드바이저 제주도내 음식점 1위,"제주시밥집, 제주도민밥집, 제주공항근처밥집, 제주동문시장밥집, 제주시청밥집",https://ldb-phinf.pstatic.net/20210719_161/1626659173842Fe3jI_JPEG/50yB_VDocKl1wh7LjGg0ZWI8.jpg,"음식점,한식",매일 10:00~21:30 15:00 - 17:00 브레이크타임,"런치_ A set : 24,000원/ 디너_산 상차림 : 33,000원/",https://ldb-phinf.pstatic.net/20220627_45/1656297943937scgl5_JPEG/220627.jpg,5868,음식점,"고집돌우럭 중문점,https://ldb-phinf.pstatic.net/20210719_8/1626659269878GfJnY_JPEG/qFc5RCLHeNU-YBlt89yo9lOd.jpg,766197218","앞돈지,https://ldb-phinf.pstatic.net/20191120_87/1574218821549Mm372_JPEG/RZGMW68lwkPFvSGjRx0rlo73.jpg,11693679","산포식당 성산점,https://ldb-phinf.pstatic.net/20201021_9/1603278706880wvobz_JPEG/sYM4z__C4TQHqXFHRYNO9cXr.JPG.jpg,12997438"
1828477580,하이엔드제주,126.3091564,33.4636041,제주특별자치도 제주시 애월읍 애월북서길 56,070-4548-4433,"제주 애월 바다의 아름다움을 담은 카페 하이엔드 제주 입니다.특색있는 통유리에 비춰지는 바다뷰를 보며 디저트와 커피, 차를 즐길 수 있으며, 제주 애월의 핫한 카페로데이트하기 좋은 코스, 아이들과 함께 하기 좋은 곳, 친구들과 담소를 나누기 좋은 곳으로 이미 많은 분들이하이엔드 제주를 다녀가시고 좋은 후기를 남겨주셨습니다.아름다운 제주 애월의 하이엔드 제주에서 힐링을 느껴보시길 바랍니다.","제주애월카페, 제주카페, 카페, 디저트카페, 제주도카페",https://ldb-phinf.pstatic.net/20220712_238/1657593201116KTwpm_JPEG/S__12492803.jpg,"음식점,카페,디저트",매일 09:00~22:00 LAST ORDER 21:20,"아메리카노 : 6,000원/ 카페라떼 : 6,500원/ 카푸치노 : 6,500원/ 바닐라라떼 : 7,000원/ 카페모카 : 7,000원/ 카라멜마끼아또 : 7,000원/ 아포카토 : 7,000원/ 용천수, 염 커피 : 8,500원/ 우도땅콩라떼 : 7,500원/ 레드펀치 : 7,000원/ 옐로우패션 : 7,000원/ 한라봉차/레몽차 : 6,500원/ 청귤에이드 : 8,000원/ 애플망고쥬스 : 8,000원/ 젤라또 150g : 6,000원/ 초코/홍차/말차우유 : 6,500원/ 블루베리우유 : 8,000원/ 블루레몬/자몽/한라봉에이드 : 7,000원/ 청귤차 : 7,000원/ 블랙티(얼그레이/잉글리쉬브랙퍼스트) : 6,500원/ 허브티(캐모마일/페퍼민트) : 6,500원/ 애플망고 스무디 : 8,000원/ 한라봉 스무디 : 8,000원/ 감귤 스무디 (시즌한정) : 8,000원/ 요거트 스무디 : 7,500원/",https://ldb-phinf.pstatic.net/20220713_104/1657688533821Ebbus_JPEG/22.07.13_%C7%CF%C0%CC%BF%A3%B5%E5%C1%A6%C1%D6_%C0%FC%C0%DA%B8%DE%B4%BA%C6%C7_%BF%A9%B8%A7.jpg,2794,음식점,"델문도,https://ldb-phinf.pstatic.net/20160826_163/1472178646647JxGxw_JPEG/176776516063874_2.jpeg,36859834","에오마르,https://ldb-phinf.pstatic.net/20200619_291/1592545964751D2mJq_JPEG/QwPiTfTILWw25pE7negd1EAq.jpg,1256054205","몽상드애월,https://ldb-phinf.pstatic.net/20220715_276/1657871822408UthB8_JPEG/E0DD7699-1532-4621-A718-67219A87BFCD.jpeg,37170797"
16929189,가람돌솥밥,126.4312672,33.24967703,제주특별자치도 서귀포시 중문관광로 332 가람돌솥밥,064-738-1200,"저희 가람돌솥밥은 20년 이상 운영해온 제주 향토음식 전문점입니다. 싱싱한 제주산 성게와 은갈치, 전복 등 엄선한 식재료를 이용해 정성껏 만들어 집밥과 같은 손맛 과 푸짐함을 느낄 수 있도록 음식을 준비하고 있습니다.찾아주신 한분한분 맛있고 배부르게 드시고 가실 수 있도록 항상 최선을 다하고 있습니다.","제주전복돌솥밥, 제주향토음식, 제주통갈치구이, 제주갈치조림, 성게전복돌솥밥",https://ldb-phinf.pstatic.net/20211015_146/16342817410615nL3o_JPEG/cbZsuS7GLRn6C7mmxJJY0VZo.jpg,"음식점,한식",매일 08:30~22:00 연중무휴,"전복돌솥밥 : 18,000원/ 성게전복돌솥밥 : 25,000원/ 한치해물돌솥밥 : 18,000원/ 전복해물뚝배기 : 18,000원/ 통갈치구이상차림(2인) : 95,000원/ 전복상차림(2인) : 85,000원/ 성게상차림(2인) : 105,000원/ 갈치조림상차림(2인) : 95,000원/",https://ldb-phinf.pstatic.net/20220721_138/1658364144831siJY0_JPEG/KakaoTalk_20220720_190146183.jpg,1179,음식점,"혜원,https://ldb-phinf.pstatic.net/20160128_240/1453962234871bHSmb_JPEG/176078555374755_0.jpeg,37031716","황금어장,https://ldb-phinf.pstatic.net/20220427_244/1651038088462JoRFW_JPEG/IMG_1452.jpg,19856297","영희네우럭명가,https://ldb-phinf.pstatic.net/20200115_249/157907360094876K7x_JPEG/xla9F1XK1kqbpex0nvG4A0eu.jpg,1292572905"
1277648050,휴일로,126.3663071,33.2324005,제주특별자치도 서귀포시 안덕면 난드르로 49-65,010-7577-4965,"-연중무휴 -09:00 -20:30(last order 20:00) -반려동물은 야외만 가능합니다 (목줄,배변봉투 지참)","제주카페, 서귀포카페, 휴라떼, 중문카페, 안덕카페",https://ldb-phinf.pstatic.net/20220517_287/1652799458094oVnsI_JPEG/%C8%DE%C0%CF%B7%CE_%285%29.jpg,"음식점,카페,디저트",매일 09:30~21:00,"아메리카노(HOT/ICE) : 7,000원/ 카페라떼(HOT/ICE) : 7,500원/ 바닐라라떼(HOT/ICE) : 8,000원/ 카라멜마끼야또(HOT/ICE) : 8,000원/ 휴라떼(ICE) : 8,500원/ 마당라떼(ICE) : 8,500원/ 설록라떼(ICE) : 8,500원/ 딸기라떼(ICE) : 9,000원/ 복숭아아이스티(ICE) : 6,500원/ 레몬차(HOT/ICE) : 7,500원/ 콜드브루(ICE) : 7,500원/ 초코라떼(HOT/ICE) : 8,000원/ 애플망고스무디(ICE) : 9,500원/ 한라봉스무디(ICE) : 9,500원/ 페퍼민트(HOT/ICE) : 7,000원/ 카모마일(HOT/ICE) : 7,000원/ 루이보스(HOT/ICE) : 7,000원/ 레몬에이드(ICE) : 8,000원/ 오베리에이드(ICE) : 8,000원/ 파인프룻에이드(ICE) : 8,000원/ 한라산케이크 : 9,000원/",https://ldb-phinf.pstatic.net/20220118_143/1642467473512ys4Iy_JPEG/ABB8E545-28DF-461B-868C-193C042BDFA5.jpeg,1160,음식점,"오르다카페,https://ldb-phinf.pstatic.net/20191204_241/1575438656823yPHHy_JPEG/4nnc-Lgeo8gjdBoJ08zKGvOR.jpg,1211354901","원앤온리,https://ldb-phinf.pstatic.net/20201005_225/1601865215887jYtMC_JPEG/nc1rfIzUxa7gppjd0ESG2fOx.jpg,1256246739","애월더선셋,https://ldb-phinf.pstatic.net/20190816_152/1565930626518ULVTQ_JPEG/zl0Ye0yvo5_bP4QodUGi-Iqt.jpg,37191637"
766197218,고집돌우럭 중문점,126.4158365,33.2577076,제주특별자치도 서귀포시 일주서로 879,064-738-1540,">제주도 '최초' 리뷰 20,000개 달성 >중문점 네이버 리뷰 10,000개 달성 >네이버/카카오/구글 리뷰 제주도 내 최다, 최고평점(4.8점) >트립어드바이저 2018, 2019, 2020, 2021 으뜸시설 선정 >식약처 인증 위생등급 '우수' 획득 >제주환경운동연합과 제로웨이스트 협업 >친환경 캠페인 '아껴주세요, 제주'","중문밥집, 서귀포밥집, 서귀포먹거리, 제주향토음식, 제주도갈치구이",https://ldb-phinf.pstatic.net/20210719_8/1626659269878GfJnY_JPEG/qFc5RCLHeNU-YBlt89yo9lOd.jpg,"음식점,한식",매일 10:00~21:30 15:00 - 17:00 브레이크타임 (재료 소진 시 / 대기 고객이 많을 시에는 조기 마감이 될 수 있습니다.),"런치_A set : 24,000원/ 디너_산(山) : 33,000원/",https://ldb-phinf.pstatic.net/20220627_220/1656297694358paBOp_JPEG/%B7%B1%C4%A1_%C0%FC%C1%F6%C1%A1.jpg,6384,음식점,"순수한둠비,https://ldb-phinf.pstatic.net/20190726_85/15641331836220uMUq_JPEG/dh4qjlTcSxacUFaLJKRyJhQp.jpg,1041822860","고집돌우럭 제주공항점,https://ldb-phinf.pstatic.net/20210719_161/1626659173842Fe3jI_JPEG/50yB_VDocKl1wh7LjGg0ZWI8.jpg,38265405","성산일출봉 청운식당,https://ldb-phinf.pstatic.net/20220716_193/16579348017769VW1q_JPEG/Screenshot_20220716-101114_Gallery.jpg,16948056"
36503433,돈이랑 본점,126.4091139,33.25770608,제주특별자치도 서귀포시 일주서로 953,064-738-9277,"중문 돈이랑 본점에서 제공되는 흑돼지는 지하 200m 화산 암반수로 특수 사육한 청정 제주 흑돼지로,H백화점에 납품되는 명품 흑돼지이며, 현재 제주 중문에서는 오직 '돈이랑 중문 본점'에서만 만나보실 수 있습니다.다양한 매체를 통해 맛집으로 인정받은 제주 중문 돈이랑 본점은야외테라스, 깡통테이블, 좌식테이블, 그리고 등받이 의자와 아기 의자를구비해 두어온 가족 모두가 편안히 식사하실 수 있는 쾌적하고 편안한 환경을 조성해 두었습니다. 또한 반려동물 동반이 가능하여, 반려동물과 제주 여행을 계획하는 고객님들도 부담없이 방문 하실 수 있습니다.특별한 여행, 최고의 식사를 제공하기 위하여 돈이랑에서는 마치 레스토랑의 코스요리처럼,숙련된 직원들이 은은한 연탄불에서 직접 구워, 고객님 한 분 한 분께 최상의 고기맛을 선사합니다. 낭만의 제주에서 명품흑돼지를 돈이랑에서 즐겨보세요","중문흑돼지, 연탄구이, 보말된장찌개, 제주도돈이랑, 중문돈이랑",https://ldb-phinf.pstatic.net/20220514_132/1652513557079yQp4q_JPEG/DWY01783.jpg,"한식,돼지고기구이",매일 12:00~22:30 브레이크타임 (15:30~16:30/입장가능시간 15:20분까지) 저녁 라스트 오더 21:40분까지,"제주흑돼지 600g : 66,000원/ 흑돼지추가 300g : 33,000원/ 김치찌개 : 7,000원/ 전복해물라면 : 9,000원/ 물냉면·비빔냉면 : 7,000원/ 보말된장찌개 : 8,000원/ 김치말이국수 : 6,000원/ 황게간장게장(추가시) : 10,000원/",https://ldb-phinf.pstatic.net/20220127_39/1643249163723IK7U5_JPEG/DA9B200E-126C-4EAA-ABA6-397A0A24A784.jpeg,2599,음식점,"금돈가 제주본점,https://ldb-phinf.pstatic.net/20220221_91/1645449528655I5QLX_JPEG/3B796BC8-4386-45BA-AC9A-16ED85E19632.jpeg,1204310967","대문집,https://ldb-phinf.pstatic.net/20211209_8/16390356599495UIzo_JPEG/9DD66789-5635-48AA-951F-88B45DC8AFE4.jpeg,16865668","돈이랑 서귀포점,https://ldb-phinf.pstatic.net/20220423_297/1650693621384C4wak_JPEG/%C5%A9%B1%E2%BA%AF%C8%AF3E5A8744.jpg,1792543141"
1142108083,연돈,126.4071443,33.2588573,제주특별자치도 서귀포시 일주서로 968-10,064-738-7060,,"치즈돈가스, 연돈볼카츠, 연돈수제돈까스, 제주도돈까스, 안심돈까스",https://ldb-phinf.pstatic.net/20191225_95/1577275678270CTDKO_JPEG/ba48BAt7aUpUogdKLegpysdq.jpg,"일식,돈가스",매일 12:00~21:00 / 브레이크타임 16:00~18:00 / 월요일 휴무,"안심까스 : 10,000원/ 등심까스 : 9,000원/ 치즈까스 : 10,000원/ 수제카레 : 3,000원/ 밥추가 : 1,000원/ 음료 : 2,000원/ 수제볼카츠 (단품) : 3,000원/ 수제볼카츠 (박스) : 15,000원/",https://ldb-phinf.pstatic.net/20191211_161/1576044387109BxJxu_JPEG/OE8r9AFBXIcCnVWGTW50r9ZN.jpg,2266,음식점,"요리바카,https://ldb-phinf.pstatic.net/20180720_89/15320581560110KK0i_JPEG/Nc-0a_nBeL7kPu6tPy2bNcTE.jpeg.jpg,1277344199","묘한식당,https://ldb-phinf.pstatic.net/20190425_190/1556180534978ub4ST_JPEG/GqaNjoL-QI3hhvJk5ifc7FHI.jpg,1360013408","유군초밥,https://ldb-phinf.pstatic.net/20210305_177/1614929570568OBCa3_JPEG/zsHAH4jbvFPjqiqL1hz3NYor.JPG.jpg,1479965101"
1089671180,호텔샌드,126.240472,33.3938873,제주특별자치도 제주시 한림읍 한림로 339,010-8879-8010,,카페,https://ldb-phinf.pstatic.net/20220104_123/1641292157298Md7mA_JPEG/1641289604533.jpg,"음식점,카페,디저트",매일 09:30~24:00 Last order 23:30,"선인장 몽테 : 7,000원/ 과일 타르트 : 8,500원/ 파블로바 : 6,500원/ 모래섬 : 13,000원/ 화산섬 : 13,000원/",https://ldb-phinf.pstatic.net/20220117_51/1642424570043N44JM_JPEG/EC8E0EE7-5E3C-4C39-A493-90DC96768336.jpeg,1166,음식점,"버밀리온,https://ldb-phinf.pstatic.net/20210530_14/16223504516022s3OT_JPEG/78WF4xKHFII4d2baTEGV-AYa.jpeg.jpg,1387958560","지금이순간카페,https://ldb-phinf.pstatic.net/20210416_124/1618554994571VS6tS_JPEG/PI5sFiTp0WosbZb1bCPUwTNs.jpg,1760068144","휴일로,https://ldb-phinf.pstatic.net/20220517_287/1652799458094oVnsI_JPEG/%C8%DE%C0%CF%B7%CE_%285%29.jpg,1277648050"
1273416923,스타벅스 제주협재점,126.24049,33.393839,제주특별자치도 제주시 한림읍 한림로 337,1522-3232,1.주차가능 2.주차장위치- 매장 앞 건물주차장 3.주차가능대수-6대 4.주차조건-무료 5.기타-인근 공영주차장 무료 이용 가능,카페,https://ldb-phinf.pstatic.net/20190828_93/1566953601239OT9MQ_PNG/xX7Wv642gXMoTI0DAv0hRymS.png,"카페,디저트,카페",매일 08:00~20:00,"카페 아메리카노 : 4,500원/ 카페 라떼 : 5,000원/ 스타벅스 돌체 라떼 : 5,900원/ 카라멜 마키아또 : 5,900원/ 카푸치노 : 5,000원/ 카페 모카 : 5,500원/ 화이트 초콜릿 모카 : 5,900원/ 콜드 브루 : 4,900원/ 자몽 허니 블랙 티 : 5,700원/ 아이스 자몽 허니 블랙 티 : 5,700원/ 망고 바나나 블렌디드 : 6,300원/ 에스프레소 프라푸치노 : 5,500원/ 자바 칩 프라푸치노 : 6,300원/",,476,음식점,"헬로우도,https://ldb-phinf.pstatic.net/20150901_83/1441076342275Du5Ay_JPEG/166277626353473_0.jpeg,36465892","스타벅스 제주송악산점,https://ldb-phinf.pstatic.net/20190828_93/1566953601239OT9MQ_PNG/xX7Wv642gXMoTI0DAv0hRymS.png,34625104","몽상드애월,https://ldb-phinf.pstatic.net/20220715_276/1657871822408UthB8_JPEG/E0DD7699-1532-4621-A718-67219A87BFCD.jpeg,37170797"
1090905770,풀베개,126.3032501,33.2855186,제주특별자치도 서귀포시 안덕면 화순서서로 492-4,064-792-2717,,카페,https://search.pstatic.net/common/?autoRotate=true&quality=95&type=w750&src=http%3A%2F%2Fblogfiles.naver.net%2FMjAyMDA5MTBfMjk5%2FMDAxNTk5Njg5MzI3ODU4.m6JtYiLPBy04pgEQPZyZUgp9AnnT3uC1bBZmEGYPENwg.v1Xay42ESPMm0LXjO-IGO0DmixQW5u7bK2q9SMPseV0g.JPEG.kskim9564%2FIMG_9839.jpg,"음식점,카페,디저트",매일 10:00~20:00 주문마감시간 19:00,"에스프레소 : 6,000원/ 아메리카노 : 6,000원/ 아메리카노 싱글 오리진 : 7,000원/ 카페라떼 : 7,000원/ 플렛 화이트 : 7,000원/ 아포가토 : 7,000원/ 에스프레소 콘파냐 : 6,000원/ 바닐라라떼 : 7,000원/ 딸기라떼 : 7,000원/ 풀베게 귤 아이스티 : 7,000원/ 스윗풀베개 : 6,500원/ 마음 : 7,000원/ 바이스크레메 : 7,000원/ 풀베게 블렌드 : 8,000원/ 녹차라떼 : 6,500원/ 허니밀크 : 5,000원/",https://ldb-phinf.pstatic.net/20210914_128/1631611609986W0PnX_JPEG/dpcdUmiDwNMP_y0nlE06BIrz.jpeg.jpg,1367,음식점,"앤트러사이트,,1240516940","플라워카페,,1674064578","사우스쇼어,https://ldb-phinf.pstatic.net/20220713_294/1657705179855oMWlY_JPEG/KakaoTalk_20220713_183816988.jpg,1690367890"
1516216333,애월빵공장앤카페,126.3014388,33.4483116,제주특별자치도 제주시 애월읍 금성5길 42-15,064-799-5959,"제주스러운 맛과 멋, 건강을 생각한 음료곽지해수욕장의 에메랄드빛 바다 뷰와 제주스러운 맛과 멋, 건강을 생각한 음료메뉴는 '애월빵공장' 만의 힐링을 선물할 것입니다. 푸른 바다빛과 여유로운 공간에서 친환경을 지향하는 음료를 맛보며 여러분의 여행을 한층 더 업그레이드 시키지 않으시겠습니까? 애월빵공장은 신선한 제품을 위해 방부제 및 화학보존제를 전혀 사용하지 않으며, 최고의 쉐프들이 엄선된 재료만을 사용하여 최신 설비와 오븐으로 매일 빵을 굽습니다.유기농 밀가루 사용! 천연발효종 사용! 화학유화제 사용 NO! 100% 순우유버터 사용! 동물성 무가당 생크림 사용!","카페, 베이커리, 애월카페, 제주도카페, 베이커리카페",https://ldb-phinf.pstatic.net/20210507_126/1620370101118CVFLy_JPEG/agOoGaV683vdYT-CPwfs_-aY.jpg,"카페,디저트,베이커리",매일 09:00~20:00 라스트오더 19:30,"아메리카노(hot) : 5,500원/ 히비스커스 유자티(hot) : 7,000원/ 에메랄드비치에이드 : 8,000원/ 라임모이또 : 8,500원/ 제주당근쥬스 : 7,500원/ 한라봉에이드 : 7,000원/ 딸기에이드 : 7,000원/ 카페라떼 : 6,000원/ 카푸치노 : 6,000원/ 바닐라라떼 : 6,500원/ 아인슈패너 : 7,000원/ 모카라떼 : 6,500원/",https://ldb-phinf.pstatic.net/20191219_8/1576738165530V4fEN_JPEG/PN5h5pz-KT2Qcq7_K2R8kpRR.jpg,905,음식점,"오드랑베이커리,https://ldb-phinf.pstatic.net/20180305_26/1520231619675oOAMR_PNG/xGaNf71X--q7uhqZA9XwUrsU.png,16886040",,
37191637,애월더선셋,126.3089021,33.45616472,제주특별자치도 제주시 애월읍 일주서로 6111,064-799-5943,바다가 바로 앞에 전망이 보이는 브런치 카페입니다 애월해안 한담산책로 위에 위치해있습니다.,"카페, 브런치카페, 디저트카페, 제주카페, 애월카페",https://ldb-phinf.pstatic.net/20190816_152/1565930626518ULVTQ_JPEG/zl0Ye0yvo5_bP4QodUGi-Iqt.jpg,"카페,디저트,카페",매일 10:00~20:00 Last order : 19:30 / 매일 10:00~19:00 동절기,"아메리카노 : 6,500원/ 브런치 : 변동가격(업주문의) 과일에이드 : 변동가격(업주문의) 생과일쥬스 : 변동가격(업주문의) 수입맥주 : 변동가격(업주문의) 치즈오믈렛 : 변동가격(업주문의)/계절샐러드 : 변동가격(업주문의) 생과일프렌치토스트 : 변동가격(업주문의)",https://ldb-phinf.pstatic.net/20200617_69/1592356649435OxDEt_JPEG/RBBksiXOhiK0JTgknT_DF_iL.jpg,2140,음식점,"봄날,https://ldb-phinf.pstatic.net/20170714_25/1500005488422zRPfP_JPEG/186664534146680_0.jpeg,21423538","휴일로,https://ldb-phinf.pstatic.net/20220517_287/1652799458094oVnsI_JPEG/%C8%DE%C0%CF%B7%CE_%285%29.jpg,1277648050","원앤온리,https://ldb-phinf.pstatic.net/20201005_225/1601865215887jYtMC_JPEG/nc1rfIzUxa7gppjd0ESG2fOx.jpg,1256246739"
1431450188,카페 노티드 제주,126.3097377,33.4632646,"제주특별자치도 제주시 애월읍 애월로1길 24-9 1,2층",070-4415-9377,안녕하세요. 노티드 제주애월점 입니다.네이버 주문은 매장 상황에 따라 오픈되며 주문 시 당일픽업(영업시간 내)으로 운영되오니 참고부탁드립니다. 감사합니다,"카페노티드, 노티드제주, 제주노티드, 노티드도넛, 제주도넛",https://ldb-phinf.pstatic.net/20210508_79/1620441810111GWwcr_JPEG/6EeXT6lINNmJk4zsKcZ2KK_G.jpeg.jpg,"카페,디저트,카페",매일 10:00~20:00,"AMERICANO : 4,000원/",https://ldb-phinf.pstatic.net/20220523_67/1653282192983PuhfU_JPEG/2205_%B5%B5%B3%D3%B8%DE%B4%BA%C6%C7_%C1%A6%C1%D6.jpg,3179,음식점,"랜디스도넛 제주애월점,https://ldb-phinf.pstatic.net/20220413_244/16498115583776Owow_JPEG/3%C3%FE%C5%D7%B6%F3%BD%BA.jpg,1000671392","나따오비까 아쿠아플라넷 제주점,,1686259661","삼달센트럴_예에쓰,https://ldb-phinf.pstatic.net/20220717_240/1658035289201bq1cN_JPEG/0EAEB46C-8F0D-4921-9066-183BC09E326E.jpeg,1177753293"
38335352,바다다,126.4367212,33.2369285,제주특별자치도 서귀포시 대포로 148-15,064-738-2882,"서귀포시 대포로에 위치한 바다다는 바닷가 앞에서 커피와 칵테일, 음식등을 즐길 수 있는 Beach Lounge 입니다.아울러, 바다다는 여태껏 제주도에서 경험할 수 없었던 이국적인 오션뷰와 디제잉파티도 즐기실 수 있습니다. 바다다는 제주 최고의 공간을 낮부터 밤까지 제공할 것을 고객님들께 약속드립니다.","칵테일, 와인, 레스토랑, 커피, 클럽",https://ldb-phinf.pstatic.net/20171030_187/1509364907625fme1e_JPEG/fTjMVrmcGCn5XWju3GgL-QLL.jpg,"음식점,카페,디저트",매일 10:30~20:00 Lastorder 19:00,"커피 : 8,000원/ 블루레몬에이드 : 변동가격(업주문의)/ 칵테일 : 변동가격(업주문의)// 쿠키,케익,도넛 : 변동가격(업주문의)",https://ldb-phinf.pstatic.net/20210511_146/1620712560631Clamc_JPEG/gEyRDu6-zkqIsiW_Iz7yQEw4.jpg,2144,음식점,"허니문하우스,https://ldb-phinf.pstatic.net/20181122_234/1542871801692fHwzt_JPEG/OncSnts0wPCfidZ8SZ5EhsoZ.JPG.jpg,1649804520","오르다카페,https://ldb-phinf.pstatic.net/20191204_241/1575438656823yPHHy_JPEG/4nnc-Lgeo8gjdBoJ08zKGvOR.jpg,1211354901","원앤온리,https://ldb-phinf.pstatic.net/20201005_225/1601865215887jYtMC_JPEG/nc1rfIzUxa7gppjd0ESG2fOx.jpg,1256246739"
1477478251,노바운더리 제주,126.7831445,33.4018163,제주특별자치도 서귀포시 표선면 번영로 2610 1층,064-787-8808,안녕하세요 제주 성읍에 위치한 노바운더리 입니다 브런치카페와 와인바 갤러리 그리고 5000평의 넓은 자연에서 힐링하시길 바랍니다 전연령대 출입가능하며 애견동반가능합니다 브런치카페는 오후 8시영업마감이며 와인바는 오후 10시까지 영업합니다,"커피, 와인, 브런치, 와인바, 갤러리",https://ldb-phinf.pstatic.net/20220525_86/1653467463781oi3eS_JPEG/C0EDDB63-A449-409A-AEA2-722A4DF42EFF.jpeg,"음식점,카페,디저트",매일 10:00~20:00(카페) / 매일 17:00~22:00(와인바) / 화요일 휴무,"오징어 먹물 리조또 : 23,000원/ 바질 페스토 파스타 : 21,000원/ 베이컨 크림 파스타 : 21,000원/ 노바운더리 토마토 파스타 : 21,000원/ 머쉬룸 아보카도 오픈 샌드위치 : 18,000원/ 미소 버터 치즈 샌드위치 : 17,000원/ 루꼴라 프로슈토 샌드위치 : 16,500원/ 잠봉뵈르 : 11,000원/ 바나나토스트 : 15,000원/ 그릭요거트 : 9,500원/ 단호박스프 : 8,000원/ 에스프레소 : 5,000원/ 아메리카노 : 7,000원/ 카페라데 : 8,000원/ 드립커피 : 8,500원/ 아포가토 : 9,000원/",https://ldb-phinf.pstatic.net/20220725_76/1658759996023gKU2t_JPEG/560CBCE8-44E6-44D0-85B9-431FBB50F237.jpeg,64,음식점,"깊 커피,https://ldb-phinf.pstatic.net/20220404_288/1649039450850ghGMJ_JPEG/C3CCE92B-E02A-4B52-91BA-41D5937C73AF.jpeg,1235177927","카페을리,https://ldb-phinf.pstatic.net/20210107_97/1609992190807HG0lH_JPEG/AJ8bxiu7VLH0lDxY3fvG1_S_.jpg,1642599855","포레스트제이 카우셰드,https://ldb-phinf.pstatic.net/20220104_229/1641272092495dC1Xq_JPEG/%C4%AB%C6%E4_%BB%E7%C1%F8.jpg,1187025595"
31660729,춘심이네 본점,126.3704931,33.26451646,제주특별자치도 서귀포시 안덕면 창천중앙로24번길 16,064-794-4010,오전 10:30 ~오후 8:00 (마지막 주문)※갈치재고 소진 또는 웨이팅이 많을 경우 조기마감 될수 있습니다.※,"통갈치구이, 뼈없는은갈치조림, 1m갈치구이, 갈치구이",https://ldb-phinf.pstatic.net/20170420_142/1492669745170hI7cL_JPEG/186370555924049_0.jpeg,"한식,해물,생선요리",매일 10:30~20:00 2020년 연중무휴 / 매일 15:30~17:00 Break Time,"통갈치구이 2인 : 83,000원/ 통갈치구이 3인 : 115,000원/ 통갈치구이 4인 : 147,000원/ 왕 갈치구이 : 170,000~210,000원/ 춘심이네 2인세트 : 88,000원/ 뼈없는 은갈치조림2인 : 70,000원/ 뼈없는 은갈치조림3인 : 87,000원/ 뼈없는 은갈치조림4인 : 104,000원/ 갈치조림 뚝배기(1人) : 17,000원/",https://ldb-phinf.pstatic.net/20220715_33/1657877701896VjuVm_JPEG/%C6%C4%C6%BC%BC%C7-%B8%DE%B4%BA%C6%C7-001_%281%29.jpg,3300,음식점,"제주마당,https://ldb-phinf.pstatic.net/20190503_198/1556810090311eS4Az_JPEG/2l5-vtg4oY86qADY7074fcH_.JPG.jpg,16789310","천지연전복해물뚝배기,https://ldb-phinf.pstatic.net/20200826_29/1598401389380QwVTD_JPEG/3Klo2fPJOSnBz5OphV2ipHjV.jpeg.jpg,51251862","장금이,https://ldb-phinf.pstatic.net/20211122_257/1637549909060XWi4Q_JPEG/IMG_2326.JPG,1246195458"
1509572684,마노르블랑,126.2950041,33.2548352,제주특별자치도 서귀포시 안덕면 일주서로2100번길 46 1층,064-794-0999,4계절 내내 꽃을 볼 수 있는 아름다운 정원이 있는 수목원/식물원!!,"핑크뮬리, 유럽수국, 감귤체험, 동백꽃, 애기동백",https://ldb-phinf.pstatic.net/20211219_149/1639880625927X9Qp5_JPEG/KakaoTalk_20211217_173141231.jpg,"여행,명소,식물원,수목원",매일 09:00~19:00 마지막주문 18:30,"HOT 아메리카노 : 7,000원/ 카페라떼 : 7,500원/ 바닐라라떼 : 8,000원/ 카라멜마끼야또 : 8,000원/ 카페모카 : 8,000원/ 입장료 : 4,000원/ 요거트스무디 : 9,000원/ 블루베리스무디 : 9,000원/ 초코라떼 : 8,000원/ 녹차라떼 : 8,000원/ 제주착즙주스 : 9,000원/ 한라봉에이드 : 9,000원/ 오미자에이드 : 9,000원/ 청귤에이드 : 9,000원/ 한라봉차 : 8,000원/ 오미자차 : 8,000원/ 허브티 : 8,000원/",https://ldb-phinf.pstatic.net/20220603_179/1654211990378OzYJP_JPEG/Screenshot_20220603-081918_NAVER.jpg,796,음식점,"상효원수목원,https://ldb-phinf.pstatic.net/20210805_13/16281251180186YSih_JPEG/%BB%EA%C6%C4%C3%BE%BD%BA_banner1.jpg,34647096","에스앤가든,,1391166790","방림원,https://ldb-phinf.pstatic.net/20211229_238/1640741272861mtcYp_JPEG/KD5A4386.jpg,11661222"
16947222,공천포식당,126.6425519,33.26643492,제주특별자치도 서귀포시 남원읍 공천포로 89 공천포식당,064-767-2425,"공천포구 인근에 있는 한식당입니다. 깻잎과 김 가루를 넣고 된장과 고춧가루를 넣어 맛을 낸 제주식 물회로 유명한 곳인데요, 해삼, 한치, 소라 중 원하는 재료를 골라서 주문하면 커다란 대접에 얼음을 동동 띄운 물회와 몇 가지 밑반찬, 밥 한 공기가 함께 나옵니다.","해물, 생선요리집, 물회",https://ldb-phinf.pstatic.net/20200430_125/158822905593133I4U_JPEG/DF5tfVy-tWk01oOkxvMwPwPo.jpg,"한식,해물,생선요리",매일 10:00~19:30 / 목요일 휴무,"한치물회(생물) : 15,000원/ 한치물회(냉동) : 12,000원/ 전복물회 : 15,000원/ 전복죽 : 10,000원/ 갈치조림 : 30,000원/ 갈치국 : 12,000원/ 고등어조림 : 20,000원/ 고등어구이 : 12,000원/ 자리구이 : 12,000원/ 홍해삼물회 : 12,000원/ 뿔소라물회 : 10,000원/ 자리물회 : 12,000원/ 전복회덮밥 : 15,000원/",https://ldb-phinf.pstatic.net/20210119_114/1611010096435JFF5v_JPEG/4dFVEhEzlmp66kWv9GDa5kfJ.jpg,678,음식점,"성산해촌,https://ldb-phinf.pstatic.net/20200413_22/1586761246929uMX7B_JPEG/NghgLM-b5bnozL2HdjErX82H.jpg,1261966617","소섬전복,https://ldb-phinf.pstatic.net/20200610_192/1591790911008LgzDp_JPEG/dZ1DRFbUfX4weE5dB-BZNfiZ.jpg,1813647783","물꼬해녀의집,https://ldb-phinf.pstatic.net/20151104_95/1446629384249eURXw_JPEG/167054585962105_8.jpg,35862505"
37438036,노라바,126.3765198,33.4829555,제주특별자치도 제주시 애월읍 구엄길 100,064-772-1900,매일 아침 신선한재료로 육수을 직접 끊여 맛을낸 해물라면 재료소진 시 영업종료,"해물라면, 제주, 문어숙회, 옛날도시락",https://ldb-phinf.pstatic.net/20220411_109/1649648048956Y7vNz_JPEG/20220408_115339.jpg,"분식,라면","매일 10:00~17:30 재료소진시 마감, 정기휴일: 첫째,넷째 목요일 / 매일 14:00~15:00 브레이크타임","해물라면 : 9,000원/ 문어라면 : 15,000원/ 돌문어숙회(한접시) : 10,000원/ 옛날도시락 : 6,000원/",https://ldb-phinf.pstatic.net/20220602_36/1654141388528OCA2i_JPEG/%B3%EB%B6%F3%B9%D921.jpg,1943,음식점,"우도해물깡패라면,https://ldb-phinf.pstatic.net/20200526_124/1590477826486c8qLV_JPEG/8tJ5BbqEhQAMqwCxRCsD6eOm.jpg,1289498479","놀맨,https://ldb-phinf.pstatic.net/20151104_215/1446624320861Snnnw_JPEG/167054573539376_0.jpg,31542957","머하멘,http://blogfiles.naver.net/20160204_52/wowmax9_1454590667844Coe6b_JPEG/NaverBlog_20160204_215747_03.jpg#900x675,37280210"
13444829,늘봄흑돼지,126.4729274,33.47953507,제주특별자치도 제주시 한라대학로 12,064-744-9001,"소고기 전문점으로 시작해 30여년이 지난 지금은 한우, 소고기 흑돼지 3개의 테마로 운영되고 있는 제주 최대 규모의 외식 업체입니다. 음식의 맛과 넓고 쾌적한 실내로 도민과 관광객들에게도 잘 알려진 곳입니다.","흑돼지, 삼겹살, 돼지갈비, 목살, 항정살",https://ldb-phinf.pstatic.net/20211027_275/1635262566183xD9pp_JPEG/3W8DQVmyCt-1-fftpOUzjxSB.jpeg.jpg,"한식,돼지고기구이",매일 11:00~22:50 연중무휴,"삼겹살 : 22,000원/ 목살 : 22,000원/ 생갈비 : 26,000원/ 양념구이 : 22,000원/ 항정살 : 22,000원/ 김치전골 소 : 30,000원/ 가브리살 : 22,000원/ 갈매기살 : 22,000원/ 전복뚝배기 : 15,000원/ 두부된장찌개 : 8,000원/ 물냉면 : 8,000원/ 껍데기 : 5,000원/ 육회 : 28,000원/ 육사시미 : 15,000원/ 늘봄정식 : 15,000원/ 비빔냉면 : 8,000원/ 해물뚝배기 : 10,000원/ 김치뚝배기 : 8,000원/ 돌솥밥 : 3,000원/",https://ldb-phinf.pstatic.net/20220716_21/1657972589822V4moM_JPEG/image.jpg,1673,음식점,"제주늘봄,https://ldb-phinf.pstatic.net/20220324_15/1648129416109JVdnJ_JPEG/ED25F038-B311-4D06-BB02-1D36B878ECA7.jpeg,1520243888","덤장중문점,https://ldb-phinf.pstatic.net/20190622_163/1561207434413T7YqB_JPEG/yzaMHHhgkTziC2x-T5EFiM1v.JPG.jpg,13444887","흑돈가 제주본점,https://ldb-phinf.pstatic.net/20211110_281/1636510325909Mrztl_JPEG/YZQGJAOladpW2b6HTFeraXY9.jpg,11853682"
